StationName,SubdivisionName,ParentSubdivisionName,latitude,longitude,District
AKADO EAST-1,KALAKALA,ABIM TOWN COUNCIL,2.6883789,33.6441052,ABIM
KINGO-1,WILELA,ALEREK,2.645749,33.736372,ABIM
MIJARE-1,JIHWA,PACARA,3.494501,31.80551,ADJUMANI
NDELE-1,KIRABA,OKUSIJONI,3.309164,31.70288,ADJUMANI
OGOSUSU-1,OPENZIRI,ADROPI,3.330137,31.77353,ADJUMANI
PAKWINYA-1,MUNGULA,ITIRIKWA,3.099688,31.79261,ADJUMANI
RUSSIA EAST-1,MARINDI,PACARA,3.413838,31.79207,ADJUMANI
SUKARI-1,ADIDI,DZAIPI,3.270521,31.94876,ADJUMANI
SUKARI-2,ADIDI,DZAIPI,3.363103,31.95465,ADJUMANI
TINDIRI-1,MAAJI,OKUSIJONI,3.044861,31.54355,ADJUMANI
TINDIRI-2,MAAJI,OKUSIJONI,3.10388,31.55965,ADJUMANI
ZOKA FR-1,ZOKA,ITIRIKWA,3.156321,31.71645,ADJUMANI
ABERO A-1,AWONODWE,OMOT,2.619928,33.23842,AGAGO
ABICELO-1,LOJIM,OMIYA PACWA,3.234206,33.54891,AGAGO
ABONE GANGKAL-1,OMONGO,LIRA PALWO,2.836536,33.15195,AGAGO
ADAGAMONE-1,LUKEE,KOTOMOL,2.609037,33.28622,AGAGO
ALOKOLUM-1,LUTOME,LIRA PALWO,2.822433,33.23339,AGAGO
ALUMAR-1,LAKWA,OMIYA PACWA,3.227582,33.42624,AGAGO
APIL CENTRAL-1,PALUTI,WOL,3.071782,33.33905,AGAGO
APIL CENTRAL-2,PALUTI,WOL,3.031513,33.3329,AGAGO
KAGOR-1,LAMIT,WOL,3.094903,33.3147,AGAGO
ABANGAIMANY-1,ABANGAIMANY,ABIA,2.435208,33.03979,ALEBTONG
ABONGO NYEKO-1,ABUKAMOLA,OMORO,2.232408,33.30452,ALEBTONG
ABUNGURU-1,ALOLOLOLO,OMORO,2.316264,33.38238,ALEBTONG
ACELA-1,OTWEOTOKE,AKURA,2.327466,33.12808,ALEBTONG
ADUKU-1,ALAL,ALOI,2.230785,33.19467,ALEBTONG
ALABWANGI-1,ANGETTA,OMORO,2.183528,33.47058,ALEBTONG
ALAROGWEC-1,OCOKOBER,OMORO,2.269736,33.50261,ALEBTONG
ALAROGWEC-2,OCOKOBER,OMORO,2.3011,33.52522,ALEBTONG
ALEBE LEBE-1,OCULUKORI,OMORO,2.268852,33.35851,ALEBTONG
TEOBWOLO-1,OTENO,ABIA,2.385882,33.08843,ALEBTONG
ACIRIDWEE-1,BANGALADESH,NAMASALE,1.52405,32.70192,AMOLATAR
AKOPLOKEDI-1,ALOBOKWE,AGIKDAK,1.678479,32.92164,AMOLATAR
ALWALA AWIKORI-1,AWIKORI,NAMASALE,1.593712,32.65373,AMOLATAR
AMIRIMIRI-1,AMIRIMIRI,AMOLATAR TOWN COUNCIL,1.656049,32.85332,AMOLATAR
ANGICH-1,ARWOT,ETAM,1.646869,32.6831,AMOLATAR
BAR ILWA B-1,KABANGALA,MUNTU,1.601608,32.90816,AMOLATAR
FARM TRC-1,ALEMERE,AGWINGIRI,1.638417,32.78493,AMOLATAR
OBALOPI-1,ARWOTCEK,ARWOTCEK,1.723153,32.82627,AMOLATAR
OKANOKONG-1,ABURKIDI,ARWOTCEK,1.691777,32.85859,AMOLATAR
OPIR B-1,NALUBWOYO,AGWINGIRI,1.56855,32.83525,AMOLATAR
ABONGAI-1,KARITA,KARITA,1.5526633,34.8411298,AMUDAT
CHEPTAPOYO-1,LOSIDOK,KARITA,1.6681182,34.9736023,AMUDAT
OJAMAI-1,DOKOLO,ASAMUK,1.985146,33.6514393,AMURIA
OODOI-1,AKISIM,WILLA,2.1274575,33.6782061,AMURIA
ADARA LC1-1,LABALA,PABBO,2.994788,31.96692,AMURU
ADARA LC1-2,LABALA,PABBO,2.989165,31.98289,AMURU
ADARA LC1-3,LABALA,PABBO,2.980456,32.05255,AMURU
AMOYOKOMA-1,PAGAK,AMURU,2.823816,31.81183,AMURU
BIBIA EAST LC1-1,BIBIA,ATIAAK,3.455997,32.14614,AMURU
LUJORO-1,PAILYEC,AMURU,2.86578,31.63482,AMURU
LUJORO-2,PAILYEC,AMURU,2.748534,31.49519,AMURU
PACILO EAST LC1-1,PACILO,ATIAAK,3.346128,32.04605,AMURU
PALUKERE EAST LC1-1,PALUKERE,ATIAAK,3.215591,32.08512,AMURU
PALUKERE EAST LC1-2,PALUKERE,ATIAAK,3.184054,32.17746,AMURU
ABONGURWOT-1,ABEDI,APAC,2.036769,32.57411,APAC
ABONGURWOT-2,ABEDI,APAC,1.999573,32.57745,APAC
ADING DONG ADEM-1,ADEM,CHEGERE,2.072007,32.46227,APAC
ADYANGODEO-1,AMIIABERIDWOGO,IBUJE,1.914307,32.43699,APAC
AKERE-1,WESTERN,APAC TOWN COUNCIL,1.96842,32.52302,APAC
ANYAMBAZI B-1,CHEGERE,CHEGERE,2.088121,32.50918,APAC
ARWOTNYAP-1,ATIGOLWOK,CHEGERE,2.073868,32.5506,APAC
ILEE A-1,ILEE,CHEGERE,2.122972,32.5568,APAC
OYITOYAT-1,AYAGO,AKOKORO,1.842245,32.4744,APAC
WIGWENG APO-1,APOI,AKOKORO,1.721755,32.43234,APAC
ALIVU-1,NDAAPI,OMUGO,3.190919,31.18555,ARUA
EWAVA-1,YIVU,PAJULU,3.036466,30.85093,ARUA
KULA FR-1,ORIVU,UDUPI,3.304433,31.17493,ARUA
LUDIRIA-1,BURA,OMUGO,3.216541,31.09914,ARUA
NGOLONYAKO-1,OLEVU,AJIA,2.9204,31.0495,ARUA
OFFAA B-1,AYAVU,VURRA,2.838514,30.91994,ARUA
OMBAU-1,OZOO,LOGIRI,2.741334,30.85619,ARUA
OMBOKORO-1,LUVU,DADAMU,3.0417,30.99786,ARUA
OWADRI-1,AZAAPI,UDUPI,3.237403,31.18618,ARUA
YORO-1,AKINIO,URIAMA,3.09613,31.19801,ARUA
BUKOMOLO II-1,KODIRI,KACHOMO,1.1541177,33.9541332,BUDAKA
BWIKOMBA-1,SUNI,LYAMA,0.9792067,33.913512,BUDAKA
KEBULA-1,KEBULA,KADERUNA,1.1004425,33.9442235,BUDAKA
LERYA-1,LERYA,KAMERUKA,1.159408,33.9788771,BUDAKA
TADEMERI-1,TADEMERI,LYAMA,0.975861,33.9741726,BUDAKA
BUSHIMALI-1,SHITEKA,BUBIITA,0.9444198,34.46656,BUDUDA
BUSHIMALI-2,SHITEKA,BUBIITA,1.004096,34.46589,BUDUDA
BUSHINYALE-1,BURABA,BUSHINYI,1.087738,34.40408,BUDUDA
BUWANANGUTU MAIN-1,BUNANGO,NALWANZA,0.9798889,34.37359,BUDUDA
KUUSHU TRC-1,BUMAYOKA,BUMAYOKA,1.023705,34.38151,BUDUDA
LUWOBE-1,BUWANABISI,BUDUDA TOWN COUNCIL,1.016409,34.34547,BUDUDA
MASAKHANU-1,KASUNI,BUKALASI,1.00639,34.41808,BUDUDA
MT ELGON NATIONAL PARK-2,NAMIRUMBA,BUSHINYI,1.090436,34.48086,BUDUDA
NABUKOTI-1,BUKHAUKHA,BUSHIKA,1.04464,34.32577,BUDUDA
NABUSERA-1,BUNAMBATSU,NAKATSI,1.061294,34.36942,BUDUDA
RUKULU-1,ULUKUSI,BUMAYOKA,1.04527,34.43661,BUDUDA
SHIBALAYO-1,SHIBANGA,BUKALASI,1.056417,34.48058,BUDUDA
SHIBALAYO-2,SHIBANGA,BUKALASI,1.079658,34.50446,BUDUDA
SUME-1,BUKIBOKOLO,BUMASHETI,0.996835,34.2973,BUDUDA
WAKOOLI-1,NAMAKUKYE,BUMAYOKA,1.045711,34.40259,BUDUDA
BUBONGOYI-1,BUSOWA,BUWUNGA,0.6230382,33.6994925,BUGIRI
BUDHEBERO-1,KASITA,NABUKALU,0.6600336,33.73923,BUGIRI
BUKAZITO-1,NKAIZA,NABUKALU,0.6407866,33.7811035,BUGIRI
BUSWIRIRI-1,WANGOBO,NABUKALU,0.7260061,33.6695784,BUGIRI
BUSWIRIRI-2,WANGOBO,NABUKALU,0.7183296,33.6596213,BUGIRI
BUTYABULE-1,BUTYABULE,NABUKALU,0.6792192,33.7720102,BUGIRI
IRIMI NALWEGOLOIRE-1,KITUMBA,MUTERERE,0.4318246,33.7421971,BUGIRI
KASOKWE-1,NABIRERE,IWEMBA,0.6466741,33.8034995,BUGIRI
KIBUYE B-1,WAKAWAKA,BULINDHA,0.3248072,33.7201273,BUGIRI
KIWONGOL-1,LWANIKA,NABUKALU,0.6905537,33.6775826,BUGIRI
BUBINGA-1,BWIGULA,BUYANGA,0.6343259,33.64733,BUGWERI
BUWOYA B-1,BUWOOYA,BUYANGA,0.658789,33.6105,BUGWERI
NABWEYA-1,MAKANDWA,MAKUUTU,0.5214323,33.58998,BUGWERI
NAMUNYUMYA B-1,NAMUNYUMYA,NAMALEMBA,0.7467332,33.63049,BUGWERI
NAMUNYUMYA B-2,NAMUNYUMYA,NAMALEMBA,0.7362789,33.62277,BUGWERI
ISINGIRO B-1,KANKARA,BITSYA,-0.324337,30.488284,BUHWEJU
KABUTEGA-1,BITSYA,BITSYA,-0.296009,30.436342,BUHWEJU
KAGOROGORO-1,KABEGARAMIRE,NYAKISHANA,-0.3225884,30.3549853,BUHWEJU
KAJUMBURA I-1,KYAHENDA,ENGAJU,-0.3074361,30.2725154,BUHWEJU
KAJUMBURA I-2,KYAHENDA,ENGAJU,-0.2858688,30.2336303,BUHWEJU
KASHARARA I-1,KASHARARA,KARUNGU,-0.339472,30.4544613,BUHWEJU
KININGA-1,MUSHASHA,BITSYA,-0.2945704,30.4683819,BUHWEJU
KIRAMIRA-1,RUKONDO,NYAKISHANA,-0.3807246,30.3441394,BUHWEJU
KYAJURA-1,RWENGWE,RWENGWE,-0.3541887,30.3946417,BUHWEJU
MALABA-1,RUBENGYE,BURERE,-0.3554982,30.3112555,BUHWEJU
MASINDO-1,NYAKASHAKA,BURERE,-0.420013,30.3004017,BUHWEJU
NYAKISHOJWA-1,NYAKISHOJWA,RWENGWE,-0.3873012,30.4595757,BUHWEJU
OMUKASHENYI-1,NYAKITOKO,BURERE,-0.4466494,30.3468269,BUHWEJU
RUJONGA-1,KIYANJA,ENGAJU,-0.272078,30.309206,BUHWEJU
RUSHAYO B-1,RUSHAYO,NYAKISHANA,-0.422754,30.3680617,BUHWEJU
RUZINGA-1,KATONGO,ENGAJU,-0.2980534,30.38349,BUHWEJU
RWEIBARE-1,RUKIRI,BIHANGA,-0.23791,30.3463068,BUHWEJU
RWEIBARE-2,RUKIRI,BIHANGA,-0.2933209,30.3291405,BUHWEJU
RWEIBARE-3,RUKIRI,BIHANGA,-0.2838153,30.3531014,BUHWEJU
RWOMUSHOJWA-1,KASHENYI,RWENGWE,-0.3149829,30.3960114,BUHWEJU
BULEEGA-1,NAMATOVU,NAJJA,0.2986511,33.0614331,BUIKWE
KIKWANYA A-1,KABIZZI,NYENGA DIVISION,0.3373868,33.1457665,BUIKWE
KITOOLA-1,NSAKYA,NAJJEMBE DIVISION,0.4613996,33.0192978,BUIKWE
LUKAAGA-1,KKONKO,WAKISI DIVISION,0.440914,33.1233786,BUIKWE
MASEKE-1,KIKWAYI,NGOGWE,0.2147854,32.93031,BUIKWE
MAWOLOBA-1,NAMULESA,NGOGWE,0.2520331,32.98798,BUIKWE
MPUKU-1,BBINGA,SSI BUKUNJA,0.1662336,32.94102,BUIKWE
NAMA HILL-1,KITEZA,KAWOLO DIVISION,0.3341235,32.9613437,BUIKWE
NAMALIRI-1,MULAJJE,NKOKONJERU TOWN COUNCIL,0.2571188,32.90973,BUIKWE
NAMBETA-1,ZZITWE,SSI BUKUNJA,0.117347,32.9728821,BUIKWE
KANGOLE-1,KANGOLE,MALERA,1.5460606,34.1516342,BUKEDEA
KOTIOKOT-1,KOTIOKOT,MALERA,1.3967286,34.1481808,BUKEDEA
BITETEERO-1,MITIGYEERA,KITANDA,-0.1064216,31.5737165,BUKOMANSIMBI
BUKAANA-1,BUTALAGA,BIGASA,-0.052154,31.6734739,BUKOMANSIMBI
BUWENDA-1,KISIITA,BUTENGA,-0.2494908,31.6727693,BUKOMANSIMBI
BUWENDA-2,KISIITA,BUTENGA,-0.2431435,31.6652959,BUKOMANSIMBI
KAWAALA-1,KASSEBWERA,BUTENGA,-0.1928084,31.5706454,BUKOMANSIMBI
KYAMAGOMA-1,KISOJJO,KIBINGE,-0.269756,31.688234,BUKOMANSIMBI
KYANSI-1,KYANKOOLE,BUTENGA,-0.2124873,31.6539277,BUKOMANSIMBI
KYEGULUSO-1,KIREMBEKO,BUKOMANSIMBI TOWN COUNCIL,-0.1657644,31.6110548,BUKOMANSIMBI
MISENYI A-1,MAKUKUULU,KITANDA,-0.0721881,31.5882374,BUKOMANSIMBI
MISENYI A-2,MAKUKUULU,KITANDA,-0.0638349,31.588344,BUKOMANSIMBI
MISENYI A-3,MAKUKUULU,KITANDA,-0.0523396,31.6013087,BUKOMANSIMBI
MISENYI A-4,MAKUKUULU,KITANDA,-0.0253203,31.558032,BUKOMANSIMBI
MUKUNYU-1,KAWOKO,BUTENGA,-0.1919281,31.6885659,BUKOMANSIMBI
NANFABIRYE-1,KIGANGAZZI,BIGASA,-0.018165,31.691534,BUKOMANSIMBI
SEKAMITUMBA-1,NDEEBA,KITANDA,-0.1702484,31.5559397,BUKOMANSIMBI
BERKEYA-1,BURKEYWO,TULEL,1.35917,34.68342,BUKWO
BUMATET-1,CHEBOI,BUKWO,1.266292,34.72247,BUKWO
BURIRWOK-1,KAPTERERWA,KAPTERERWO,1.253857,34.799,BUKWO
ELGON NATIONAL PARK-1,ELGON NATIONAL PARK,SUAM,1.131012,34.56803,BUKWO
KAWUSWO-1,CHEKWIR,TULEL,1.381223,34.7093,BUKWO
KITAW-1,BRIM,RIWO,1.334384,34.75308,BUKWO
KOTIPCHEKWOROT-1,MUIMET,BUKWO,1.299294,34.77421,BUKWO
KULWAL-1,KAPCHEMOGEN,RIWO,1.355527,34.73994,BUKWO
RWANDOI-1,CHESIMAT,KORTEK,1.281095,34.67136,BUKWO
TOROKYO-1,KAPKWENO,SUAM,1.239349,34.75136,BUKWO
BUMUYONGA-1,BUWEBERE,BUNAMBUTYE,1.488033,34.41637,BULAMBULI
BUMWALYE-1,BUSHANGI,BUNAMBUTYE,1.457395,34.31855,BULAMBULI
BUMWALYE-2,BUSHANGI,BUNAMBUTYE,1.526873,34.25184,BULAMBULI
BUSANO A-1,BUMUSAMALI,BUKHALU,1.269753,34.26087,BULAMBULI
BUSIU-1,BUNANGAKHA,NABONGO,1.381155,34.29499,BULAMBULI
BUWALA-1,BUMUFUNI,BUNAMBUTYE,1.522445,34.37342,BULAMBULI
BUWESONGA-1,SIMU,BUKHALU,1.323146,34.27363,BULAMBULI
COASTA-1,MABONA,SISIYI,1.273691,34.33451,BULAMBULI
LUGUTA-1,BUGIMWERA,BUMASOBO,1.149835,34.49913,BULAMBULI
NANYOLOLO-1,NATABA,BULUGANYA,1.224755,34.38168,BULAMBULI
BUDONGO FR-1,BUSINGIRO,BIISO,1.7731142,31.4788827,BULIISA
KAYIRA-1,BUBWE,BIISO,1.7986997,31.4505018,BULIISA
KIBAMBURA-1,NGWEDO,NGWEDO,2.1607663,31.4403315,BULIISA
KIRAMA-1,KIRAMA,KIGWERA,2.1910045,31.4267869,BULIISA
SONSIO-1,WALUKUBA,BUTIABA,1.8735593,31.4056932,BULIISA
SONSIO-2,WALUKUBA,BUTIABA,1.8291323,31.4024502,BULIISA
WAIGA-1,BUGANA,BULIISA,1.9326555,31.4332377,BULIISA
WAIGA-2,BUGANA,BULIISA,1.9828168,31.5503078,BULIISA
WAIGA-3,BUGANA,BULIISA,2.0013627,31.473614,BULIISA
WAISOKE-1,BUGOIGO,BUTIABA,1.8846774,31.4687684,BULIISA
BIHYA I -1,KAKUKA,SINDILA,0.5707562,29.9937,BUNDIBUGYO
BITAHURA-1,NYABUGESERA,NTANDI TOWN COUNCIL,0.793819,30.14855,BUNDIBUGYO
BUBUKWANGA CENTRAL-1,BUBUKWANGA,BUBUKWANGA,0.7828115,30.06094,BUNDIBUGYO
BUBULONGU I-1,NTORORO,NTOTORO,0.7934552,30.12562,BUNDIBUGYO
BUGHARAMA I-1,BUNDIBUTURO,KIRUMYA,0.7401431,30.08888,BUNDIBUGYO
BUGOMBWA CENTRAL-1,BUGOMBWA ,BUSARU,0.6969251,30.05555,BUNDIBUGYO
BUHUNDU I-1,KANYANSIRI,NTOTORO,0.7822875,30.10604,BUNDIBUGYO
BUKANGAMA II-1,BUKANGAMA,BUKONZO,0.6989404,30.10058,BUNDIBUGYO
BUMBILI-1,KIKYO,NGAMBA,0.7391329,30.13962,BUNDIBUGYO
BUNDIBAKEREKE-1,HAKITARA,KISUBBA,0.706752,30.0253,BUNDIBUGYO
BUNDIJONGYA -1,MUTUNDA,NDUGUTO,0.623003,29.98197,BUNDIBUGYO
BUNDIKAKEMBA III-1,BUNDIMULINGA,NYAHUKA TOWN COUNCIL,0.6813562,29.99388,BUNDIBUGYO
BUSIGHA -1,KASANZI,NDUGUTO,0.6292762,30.028,BUNDIBUGYO
ISURA I-1,KATWAKAL,KASITU,0.8235269,30.18369,BUNDIBUGYO
NGUNGHO-1,BUPOMBOLI,HARUGALE,0.6637952,30.08861,BUNDIBUGYO
BUGUNGU-1,KABALE,KIBIITO,0.4448095,30.17349,BUNYANGABU
BUKARA-1,EAST,KIBIITO TOWN COUNCIL,0.4876704,30.20276,BUNYANGABU
BULEMEZI-1,BUNAIGA,KATEBWA,0.5474311,30.09118,BUNYANGABU
BULYAMBAGHU-1,BUKARA,KABONERO,0.4651532,30.03184,BUNYANGABU
BULYAMBAGHU-2,BUKARA,KABONERO,0.4309517,29.99386,BUNYANGABU
BULYAMBAGHU-3,BUKARA,KABONERO,0.481902,30.07682,BUNYANGABU
BULYAMBAGHU-4,BUKARA,KABONERO,0.4859108,30.03824,BUNYANGABU
BULYAMBAGHU-5,BUKARA,KABONERO,0.485913,30.06088,BUNYANGABU
BULYAMBAGHU-6,BUKARA,KABONERO,0.4908109,30.11009,BUNYANGABU
BULYAMBAGHU-7,BUKARA,KABONERO,0.4628081,30.00748,BUNYANGABU
BULYAMBAGHU-8,BUKARA,KABONERO,0.439528,30.01966,BUNYANGABU
KATEEBWA I-1,KATEEBWA,KATEBWA,0.515235,30.13325,BUNYANGABU
KIBATE-1,NSUURA,KYAMUKUBE TOWN COUNCIL,0.571205,30.13926,BUNYANGABU
KITUMBA II-1,KICUUCU,KISOMORO,0.5099818,30.16549,BUNYANGABU
LYENGUMBA-1,KIYOMBYA,BUHEESI,0.5382483,30.23839,BUNYANGABU
MUJUNJU CENTRAL-1,MUJUNJU,KIBIITO,0.4654883,30.24115,BUNYANGABU
NYAMISEKE I-1,NYAMISEKE,BUHEESI,0.5037423,30.2405,BUNYANGABU
RUBALIKA A-1,KAKOGA,RWIMI,0.3707631,30.26628,BUNYANGABU
RUBALIKA II A-1,KADINDIMO,RWIMI,0.4049354,30.25687,BUNYANGABU
RWIMI CENTRE B-1,CENTRAL,RWIMI TOWN COUNCIL,0.3536742,30.23615,BUNYANGABU
KABATUURA-1,NYARUGOOTE,NYABUBAARE,-0.5136513,30.0426331,BUSHENYI
KALINZU FOREST-1,KALINZU FOREST,NYABUBAARE,-0.403558,30.0357004,BUSHENYI
KALINZU FOREST-2,KALINZU FOREST,NYABUBAARE,-0.391805,30.0305073,BUSHENYI
KAYENGO-1,NGORORA,BITOOMA,-0.4466874,30.1791761,BUSHENYI
KYAMBURA-1,RWAJERE,BURERE,-0.3652401,30.2457978,BUSHENYI
NSHUGASHUGI-1,MASHONGA,KYAMUHUNGA TOWN COUNCIL,-0.3612496,30.0678816,BUSHENYI
NYABIKYERERE-1,RYAMABENGWA,CENTRAL DIVISION,-0.5332751,30.1580881,BUSHENYI
NYABITOTE II-1,NYABUBAARE,NYABUBAARE,-0.5428524,30.082391,BUSHENYI
RYAMIZINGO-1,RUSHINYA,KAKANJU,-0.4995371,30.1667009,BUSHENYI
RYEISHE-1,RYEISHE,IBAARE,-0.5988421,30.1407533,BUSHENYI
ACHILET-1,AMONIKAKINEI,BUTEBA,0.561592,34.067905,BUSIA
AGORIATA-1,MAWERO,BUTEBA,0.477861,34.101408,BUSIA
BUBWIBO-1,MASAFU,MASAFU,0.404998,34.0175646,BUSIA
BUBWIBO-2,MASAFU,MASAFU,0.4139147,34.032365,BUSIA
BUCHWERE-1,JINJA,LUMINO,0.3104539,33.9843394,BUSIA
BUDEBANI-1,MASABA,MASABA,0.3620248,33.937961,BUSIA
BUGENGI-1,BUSIABALA,LUNYO,0.3306937,33.9052945,BUSIA
BUKOBE EAST-1,KUBO,MASAFU,0.4397363,33.9507667,BUSIA
BUMIRAMBAKO-1,BUWEMBE,BUYANGA,0.4676618,33.9856669,BUSIA
KAYORO B-1,BUTEBA,BUTEBA,0.5664399,34.1226429,BUSIA
BUDOBA-1,BUSABA,BUSABA,0.8772346,33.8367554,BUTALEJA
NYAWERA-1,LUJEHE,BUTALEJA TOWN COUNCIL,0.9003794,33.9677837,BUTALEJA
GOMBE HOSPITAL-1,GOMBE,GOMBE TOWN COUNCIL,0.1725923,32.12218,BUTAMBALA
GOMBE HOSPITAL-2,GOMBE,GOMBE TOWN COUNCIL,0.172194,32.13018,BUTAMBALA
KYANGOMA-1,NTOLOMWE WARD,GOMBE TOWN COUNCIL,0.162375,32.12684,BUTAMBALA
LWAMASAKA-1,BUKESA,NGANDO,0.085204,31.897579,BUTAMBALA
TTABA LUZINGA-1,KITIMBA,KALAMBA,0.2805568,32.2754587,BUTAMBALA
KOTORONGO-1,KITOIKAWONONI,KANGINIMA,1.195486,33.9910877,BUTEBO
ODUKURO-1,OKARACHA,OPWATETA,1.2237271,33.8206688,BUTEBO
OMATAKOJO-1,KIBALE,KIBALE,1.2095165,33.7651216,BUTEBO
OMATAKOJO-2,KIBALE,KIBALE,1.2318933,33.759201,BUTEBO
TIIRA I-1,PUTTI,KABWANGASI,1.1421519,34.0919722,BUTEBO
BUGEMA-1,BUWANGA,NAIRAMBI,0.2008124,33.2989602,BUVUMA
BUWANGWE B-1,LUNYANJA,BUSAMUZI,0.2319411,33.28367,BUVUMA
GUNDA-1,MPATTA,BWEEMA,0.1254364,33.13933,BUVUMA
KAYEMBE-1,BUWAGA,BUGAYA,0.0343363,33.26687,BUVUMA
KEKEJJE-1,MAGYO,NAIRAMBI,0.1578717,33.28638,BUVUMA
KIGOBERO-1,BUKINALWA,BUWOOYA,0.2356009,33.33853,BUVUMA
KILAYITA-1,BUSAMUZI,BUSAMUZI,0.2808329,33.26482,BUVUMA
LWAZI-1,NDWASI,BUGAYA,0.0455815,33.27932,BUVUMA
LWAZZI-1,DEMBE,LWAJJE,0.0074068,32.9232219,BUVUMA
MULOGO-1,BUZIRI,BWEEMA,0.1521951,33.17435,BUVUMA
BUBEKO-1,NABITULA PARISH,BUGAYA,1.071959,33.27355,BUYENDE
BUDOPE-1,GUMPI PARISH,BUGAYA,1.0816828,33.3174641,BUYENDE
BUDUULI-1,WESUNIRE PARISH,BUYENDE,1.2476417,33.1507843,BUYENDE
BUGAGA MANGO-1,MANGO PARISH,BUYENDE,1.2142032,33.2497075,BUYENDE
BUGALU-1,BUMOGOLI PARISH,KAGULU,1.2883683,33.2926455,BUYENDE
BUGANZA-1,BUKUTULA,KAGULU,1.1833842,33.3495117,BUYENDE
BUGWERI NABIGWO-1,BUTAASWA PARISH,BUGAYA,1.091189,33.25591,BUYENDE
BUHEIRIA BULUBA-1,KAGULU,KAGULU,1.2251349,33.3556949,BUYENDE
BUJAYUNJWA B-1,BUYANJA PARISH,KIDERA,1.4138329,32.8809067,BUYENDE
IZUNGWE-1,IRINGA PARISH,NKONDO,1.2496256,33.0061258,BUYENDE
ABUNYI-1,ATABU,BATTA,2.041839,33.11676,DOKOLO
ABUNYI-2,ATABU,BATTA,2.051135,33.15669,DOKOLO
ABWA-1,AYUNI,KANGAI,1.801896,33.06407,DOKOLO
ABYENEK-1,OTORO,KWERA,1.867611,33.02128,DOKOLO
ACANYIBI-1,ALENGA,DOKOLO,1.989547,33.16073,DOKOLO
ACUNGAPENYI ADWONGOWOR-1,ADOWONGOWOR,ADEKNINO,1.750694,33.03818,DOKOLO
ARIKENO-1,ANERALIBI,OKWONGODUL,1.866722,33.077,DOKOLO
AYET AYET A-1,ANYACOTA,OKWONGODUL,1.927884,33.05045,DOKOLO
KOROTO-1,AKOLODONG,AMWOMA,1.929863,33.10576,DOKOLO
ONEKACARI-1,ABYENEK,BATTA,2.047991,33.18724,DOKOLO
BUKALAGI KABAMBA-1,SAALI,KYEGONZA,0.2286163,31.82502,GOMBA
BUSOLO B-1,MPOGO,MPENJA,0.2590163,32.08678,GOMBA
DDEGEYA-1,DDEGEYA,MADDU,0.19944,31.5806773,GOMBA
KYABAGAMBA-1,KYABAGAMBA,MADDU,0.2978388,31.51716,GOMBA
KYETUME-1,KYAYI,MADDU,0.2120427,31.4159,GOMBA
NAKASAGAZI-1,MPUNGE,KYEGONZA,0.2118599,31.88692,GOMBA
NAKASAGAZI-2,MPUNGE,KYEGONZA,0.2196003,31.89066,GOMBA
NKWALE B-1,KOOME,KANONI TOWN COUNCIL,0.2043806,31.90212,GOMBA
NKWALE B-2,KOOME,KANONI TOWN COUNCIL,0.1981524,31.90224,GOMBA
WABIIBO-1,LUGAAGA,KABULASOKE,0.0819912,31.82569,GOMBA
AGUNG-1,ODING,UNYAMA,2.8730341,32.3688159,GULU
AJANYI-1,PAGIK,PAICHO,2.9682522,32.5270704,GULU
KATIKATI-1,OITINO,BUNGATIRA,2.8224677,32.2436974,GULU
KICEKE-1,KALUMU,PAICHO,2.8915551,32.4413853,GULU
OGURU-1,PUKONY,AWACH,2.9369309,32.4540665,GULU
OGURU-2,PUKONY,AWACH,2.9456011,32.4543231,GULU
ONGEDO-1,MEDE,PALARO,3.1609451,32.3643319,GULU
ONGEDO-2,MEDE,PALARO,3.2387855,32.3777596,GULU
PATWOL-1,LABWOROMOR,PALARO,3.0979169,32.3265841,GULU
POKOGALI-1,OWALO,PALARO,3.0982061,32.4324579,GULU
BUKONA-1,KISUKUMA,KIGOROBYA,1.634178,31.2715,HOIMA
BUSWEKERA SOUTH-1,KIHUKYA,BUSIS DIVISION,1.372176,31.31293,HOIMA
KIGAAGA B-1,KABAALE,BUSERUKA,1.464004,31.03173,HOIMA
KIHAMBA-1,KIDUUMA WARD,BUSIS DIVISION,1.430499,31.29373,HOIMA
KIHWERA-1,KIBUGUBYA,KYABIGAMBIRE,1.522029,31.44516,HOIMA
KIKONOKA BULYANGO-1,BULYANGO,KITOBA,1.580411,31.40043,HOIMA
KIKUMBA KIGANJA-1,KIGANJA,KIGOROBYA,1.685158,31.29866,HOIMA
KIRYAMBOGA-1,TOONYA,BUSERUKA,1.535791,31.03249,HOIMA
KISIITA KARONGO-1,KARONGO,BUJUMBURA DIVISION,1.469839,31.30742,HOIMA
KITONYA II-1,KITONYA,BUHANIKA,1.384405,31.45845,HOIMA
MARONGO-1,BWIKYA,KIGOROBYA,1.594384,31.20877,HOIMA
NYAKABINGO-1,NYAKABINO,BUSERUKA,1.505987,31.21092,HOIMA
NYAKAKONGE-1,BULINDU,KYABIGAMBIRE,1.455457,31.45027,HOIMA
NYAKAKONGE-2,BULINDU,KYABIGAMBIRE,1.490514,31.48306,HOIMA
RUNGA-1,KIBIRO,KIGOROBYA,1.736231,31.31248,HOIMA
BIHANGA II-1,BIHANGA,NYAMAREBE,0.0486,30.58285,IBANDA
BIRORO I-1,KARANGARA,BISHESHE DIVISION,-0.0070237,30.5268622,IBANDA
BIRORO I-2,KARANGARA,BISHESHE DIVISION,-0.0626286,30.5381038,IBANDA
BUBAARE-1,BUFUNDA,BUFUNDA DIVISION,-0.130218,30.517769,IBANDA
ENDAMA-1,KAMWIRI,KIJONGO,-0.0186657,30.4193342,IBANDA
JUBILEE STREET-1,KYEIKUCU,KAGANGO DIVISION,-0.0999612,30.4310497,IBANDA
KABUHWEJU-1,KANYWAMBOGO,KICUZI,-0.1515558,30.3340407,IBANDA
KABURO I-1,RUGAAGA,KEIHANGARA,-0.1998143,30.5757504,IBANDA
KAHUNGYE-1,KAYENJE,BUFUNDA DIVISION,-0.1847874,30.4867509,IBANDA
KAHUNGYE-2,KAYENJE,BUFUNDA DIVISION,-0.1897054,30.4730107,IBANDA
KANAMA I-1,NYAKATOOKYE,KAGANGO DIVISION,-0.0976518,30.4681047,IBANDA
KANAMA I-2,NYAKATOOKYE,KAGANGO DIVISION,-0.0967287,30.4696302,IBANDA
KARAMBI A-1,ITABYAMA,RUSHANGO TOWN COUNCIL,0.1301109,30.57811,IBANDA
KARANGARA-1,MPASHA,RUKIRI,-0.1984444,30.4386727,IBANDA
MUGARAMA I-1,KATEMBE,RUKIRI,-0.2568348,30.4293616,IBANDA
OMWITAAGI-1,NYANTSIMBO,ISHONGORORO TOWN COUNCIL,0.0274928,30.47439,IBANDA
OMWITAAGI-2,NYANTSIMBO,ISHONGORORO TOWN COUNCIL,0.0871756,30.49261,IBANDA
BUYUBU-1,BWANALIRA,BULAMOGI,0.6284987,33.43813,IGANGA
BUYUBU-2,BWANALIRA,BULAMOGI,0.61149,33.4291,IGANGA
BUYUBU-3,BWANALIRA,BULAMOGI,0.6241148,33.42241,IGANGA
KAKIRA-2,NASUTI,NAMBALE,0.7622303,33.5282186,IGANGA
LUGOBANGO-1,NAWANYINGI,NAWANYINGI,0.7161745,33.4538642,IGANGA
MUIRA-1,MUIRA,NAMBALE,0.7459407,33.4813049,IGANGA
NABITENDE B-1,KIDAAGO NABITENDE,NAMBALE,0.8638693,33.4972508,IGANGA
NAIBIRI NORTH-1,NAIBIRI,NAMBALE,0.8052956,33.531396,IGANGA
NAMUNDUDI C-1,BUKOONA,NAKALAMA,0.67827,33.5501984,IGANGA
NAMUSIISI I-1,KASAMBIKA,NABITENDE,0.8429697,33.4399182,IGANGA
AKAFUNDA-1,MASHA,MASHA,-0.6933788,30.774728,ISINGIRO
AKAFUNDA-2,MASHA,MASHA,-0.6156906,30.787459,ISINGIRO
KAGAAGA B-1,NGARAMA,NGARAMA,-0.9194679,30.8870986,ISINGIRO
KAGAAGA B-2,NGARAMA,NGARAMA,-0.934144,30.872587,ISINGIRO
KAGAAGA B-3,NGARAMA,NGARAMA,-0.8748953,30.8478324,ISINGIRO
KAGAAGA B-4,NGARAMA,NGARAMA,-0.8826707,30.880112,ISINGIRO
KAGANDO A-1,RUGAAGA,RUGAAGA,-0.8070657,30.9779865,ISINGIRO
KAGANDO A-2,RUGAAGA,RUGAAGA,-0.7851403,31.0186575,ISINGIRO
KAGANDO A-3,RUGAAGA,RUGAAGA,-0.847194,31.0220568,ISINGIRO
KARORA B-1,KIGARAGARA,KASHUMBA,-0.9857145,30.9345815,ISINGIRO
KYABIRIKWA-1,ISINGIRO TOWN COUNCIL,ISINGIRO TOWN COUNCIL,-0.7679933,30.8739824,ISINGIRO
KYABIRIKWA-2,ISINGIRO TOWN COUNCIL,ISINGIRO TOWN COUNCIL,-0.8260262,30.8111884,ISINGIRO
NYAKAYOJO-1,KIKAGATE,KIKAGATE,-0.9722819,30.7145365,ISINGIRO
NYANJAETAGYERA I-1,NYAKITUNDA,NYAKITUNDA,-0.8699855,30.698036,ISINGIRO
RWANTAHA A-1,RUSHASHA,RUSHASHA,-0.7221095,31.0223279,ISINGIRO
BUWAIRAMA-1,KIBIBI PARISH,BUDONDO,0.5397017,33.13373,JINJA
FACTORY-1,WALUKUBA WEST WARD,MASESE WALUKUBA DIVISION,0.4251837,33.22262,JINJA
GO MOJA-1,KAKIRA WARD,KAKIRA TOWN COUNCIL,0.496534,33.2938,JINJA
KAYALWE B LCI-1,BULUGO PARISH,BUYENGO,0.6781504,33.22191,JINJA
KYABIRWA-1,IVUNAMBA PARISH,BUDONDO,0.5125727,33.18429,JINJA
LINE MABATI-1,KABYAZA WARD,KAKIRA TOWN COUNCIL,0.5187451,33.30635,JINJA
MUTAI CENTRAL-1,KAGOMA PARISH,BUWENGE,0.5583659,33.221,JINJA
NAKIGO-1,MWIRI WARD,KAKIRA TOWN COUNCIL,0.4999138,33.27567,JINJA
NAMAGANGA-1,KISASI PARISH,BUSEDDE,0.58626,33.2762,JINJA
WANYANGE LAKE LCI-1,WANYANGE PARISH,MAFUBIRA,0.4638543,33.25879,JINJA
KAKUTA-1,LOPEDO,LODIKO,3.521864,34.23811,KAABONG
KALAPATA-1,LOMERUMA,LOYORO,3.37425,34.30177,KAABONG
KIDEPO NP-1,MORUNGOLE,KAMION,3.95829,34.10118,KAABONG
KIDEPO NP-2,MORUNGOLE,KAMION,3.821891,34.09087,KAABONG
LELEOKOT-1,LOKANAYANA,LOYORO,3.495853,34.22642,KAABONG
LOGUMASIRO-1,TOROI,LOYORO,3.312174,34.24736,KAABONG
LOKWAKARAMOE C-1,LOKWAKARAMOE,KAMION,3.725891,34.07309,KAABONG
NAKIDIIR-1,NAOYAGUM,KAWALAKOL,4.085994,33.97414,KAABONG
NARIWORE NORTH-1,LONGARO,SIDOK,3.28655,34.02423,KAABONG
TIMU FR-1,TIMU,KAMION,3.680712,34.36799,KAABONG
AHAISINGYE-1,KARWERU,MAZIBA,-1.3746898,30.1167596,KABALE
BURAMBIRA KATUNA-1,MUKARANGYE,KITUMBA,-1.4035224,29.9943872,KABALE
KAGOROGORO KYASANO-1,KYASANO,KAMUGANGUZI,-1.3907121,29.9571067,KABALE
KAGOROGORO NYAMIRYANGO-1,NYAMIRYANGO,BUTANDA,-1.389649,29.8934855,KABALE
KARIBA KAROBWA-2,KARORWA,BUKINDA,-1.2504181,30.1367075,KABALE
KASHENYI KITUMBA-1,KITUMBA,KITUMBA,-1.2873396,29.9810438,KABALE
KATEGURE-1,KIGATA,KYANAMIRA,-1.3028339,30.0438925,KABALE
KIGARAMA C-1,NYANJA,MAZIBA,-1.2830653,30.1084819,KABALE
KIGARAMA-1,RWANYENA,RUBAYA,-1.357091,29.9434254,KABALE
KYABAGARA-1,KAHUNGYE,BUTANDA,-1.459344,29.9402113,KABALE
KYAMAKAMABA-1,NYAKASHARARA,KAHARO,-1.2551172,30.0668924,KABALE
KYAMAKAMBA KAHARO-1,KAHARO,KAHARO,-1.2166323,30.0501447,KABALE
MUSHENYI-1,KARUJANGA,RUBAYA,-1.4404022,29.9786925,KABALE
NYAMABARE BUTANDA-1,BUTANDA,BUTANDA,-1.4272029,29.9030812,KABALE
OMURURINDA-1,KICUMBI,KAMUGANGUZI,-1.3493819,29.9942712,KABALE
RUSHAMBYA-1,NYABUSHABI,KYANAMIRA,-1.2265643,30.0189181,KABALE
RUSHOMO-1,BIRAMBO,MAZIBA,-1.3292897,30.1075643,KABALE
RUTARE-1,RWENE,BUHARA,-1.4000314,30.0330059,KABALE
RWAKASHENDWA-1,RUGARAMA,MAZIBA,-1.3003607,30.1485905,KABALE
RWAMACANKA-1,KITANGA,BUHARA,-1.3488796,30.0635948,KABALE
BUTUKU I-1,KAHUNA,KIJURA TOWN COUNCIL,0.8192976,30.36026,KABAROLE
KAGOTE D-1,KAGOTE,WESTERN DIVISION,0.6681414,30.2736,KABAROLE
KAISAGARA-1,KAISAGARA,KIJURA TOWN COUNCIL,0.8695221,30.40222,KABAROLE
KANYANTE-1,NYABWEYA,KASENDA,0.2871741,30.31124,KABAROLE
KANYANTE-2,NYABWEYA,KASENDA,0.4055343,30.29935,KABAROLE
KASESENGE-1,KABENDE,HAKIBAALE,0.9103055,30.49666,KABAROLE
KASESENGE-2,KABENDE,HAKIBAALE,0.902751,30.5025298,KABAROLE
KASESENGE-3,KABENDE,HAKIBAALE,0.8407101,30.45499,KABAROLE
KIMUHONDE-1,KASIISI,KIKO TOWN COUNCIL,0.573446,30.316036,KABAROLE
KITONYA-1,KAMABALE,KARANGURA,0.6397389,30.1611,KABAROLE
KYAWANKADA-1,KAHANGI,HAKIBAALE,0.7019465,30.41189,KABAROLE
MAKOBYO-1,KYANYAWARA,KIKO TOWN COUNCIL,0.5537348,30.33933,KABAROLE
MUBALI-1,KYEREREZI,KIJURA TOWN COUNCIL,0.7943276,30.40966,KABAROLE
MUGAMBA-1,NYANTABOOMA,KICWAMBA,0.6855051,30.2930622,KABAROLE
MUGAMBA-2,NYANTABOOMA,KICWAMBA,0.7345426,30.30499,KABAROLE
MUHUMBU-1,KIBURARA,HAKIBAALE,0.6906325,30.35408,KABAROLE
NYABIBYA-1,KIHONDO,KICWAMBA,0.698375,30.20085,KABAROLE
NYABINAMBA-1,NYABUBAALE,KIKO TOWN COUNCIL,0.6111336,30.35212,KABAROLE
NYANSOZI-1,KIBOHA,MUGUSU TOWN COUNCIL,0.6068714,30.23257,KABAROLE
RUSENYI B-1,RUTOMA,RUTEETE,0.559591,30.31728,KABAROLE
ACWALI-1,SWAGERE,OCHERO,1.569267,33.00636,KABERAMAIDO
ADOK-1,KORYAMO,ALWA,1.830306,33.19569,KABERAMAIDO
AGULE-1,KAGAA,OCHERO,1.658869,33.0295,KABERAMAIDO
AGULU-1,APERIKIRA,APERIKIRA,1.773338,33.23936,KABERAMAIDO
ALAM A-1,KANYALAM,OCHERO,1.631458,33.06474,KABERAMAIDO
GWER-1,OKAPEL,APERIKIRA,1.710486,33.21597,KABERAMAIDO
KAKADO-1,OKILLE,KOBULUBULU,1.691949,33.10498,KABERAMAIDO
KAKADO-2,OKILLE,KOBULUBULU,1.692673,33.1581,KABERAMAIDO
OMODOI B-1,PALATAU,ALWA,1.801328,33.1543,KABERAMAIDO
OYAMAI-1,KABERAMAIDO,KABERAMAIDO,1.753471,33.13691,KABERAMAIDO
KASOJO-1,RWABARANGA,MPEEFU,1.0188076,30.6531657,KAGADI
KITOORO C-1,KITOORO,KIRYANGA,1.042091,31.104917,KAGADI
KYABAYAGA B-1,MAIRIRWE,BWIKARA,0.9911586,30.741248,KAGADI
MABAALE B-1,NYAKARONGO,BWIKARA,0.9664501,30.6223149,KAGADI
NAMALEMBO C-1,NYAMASA,BWIKARA,0.9053604,30.6662345,KAGADI
NYABUGANDO C-1,BURORA,BURORA,1.1085354,30.9067615,KAGADI
NYAMIRINGA-1,KIKONDA,KIRYANGA,1.1240569,31.0601126,KAGADI
RUTOOMA-2,RUGASHARI,RUGASHARI,1.0915925,30.8213155,KAGADI
RWAMABALE A-1,BUSIRABO,KAGADI,0.870681,30.835096,KAGADI
RWENSENENE B-1,RUBIRIZI,MPEEFU,1.101518,30.6833517,KAGADI
KABUUBWA WEST-1,KITUTUMA,NKOOKO,0.865885,31.41325,KAKUMIRO
KATOLERWA-1,KIRIISA,KITAIHUKA TOWN COUNCIL,0.991244,31.2604,KAKUMIRO
KIJANGI-1,KIJANGI,KAKINDO,1.014911,31.21318,KAKUMIRO
KIRYAMASASA-1,KIJWENGE,NALWEYO,1.051896,31.29092,KAKUMIRO
KYABANYUMYA-1,KAKAYO,KASAMBYA,0.9387234,31.2659,KAKUMIRO
KYAKIJUUTO-1,KATIKARA,KISIITA,1.18273,31.31536,KAKUMIRO
MARONGO-2,RUKUNYU,KAKINDO,1.086896,31.16651,KAKUMIRO
MASSA-1,KINUUNA,KITAIHUKA TOWN COUNCIL,1.086346,31.24824,KAKUMIRO
NYABINGOLA-1,ISUNGA,NKOOKO,0.9015905,31.37373,KAKUMIRO
RWEMIRAMA-1,KISIITA,KISIITA,1.104661,31.38105,KAKUMIRO
AKUYA-1,OGWOLO,ANYARA,1.965787,33.29764,KALAKI
AKUYA-2,OGWOLO,ANYARA,1.984288,33.30674,KALAKI
KADINYA-1,KADINYA,KALAKI,1.799076,33.36092,KALAKI
KAKORE-1,LWALA,OTUBOI,1.835353,33.28252,KALAKI
KOMOLO-1,ANYARA,ANYARA,2.004262,33.33672,KALAKI
KOTINI-1,OCERAKUL,BULULU,1.707709,33.36869,KALAKI
OKONGOL-1,KAKERE,KALAKI,1.874364,33.32182,KALAKI
ONGICAI-1,OPILITOK,OTUBOI,1.921466,33.27323,KALAKI
OTOLE-1,KADIE,OTUBOI,1.906008,33.32096,KALAKI
SANGA BWIRE-1,KIBIMO,BULULU,1.708884,33.28496,KALAKI
BUJUMBA BUYOGA-1,BUJUMBA,BUJJUMBA,-0.3515157,32.2574595,KALANGALA
BUWAZI-1,BUZINGO,KYAMUSWA,-0.4873538,32.4725135,KALANGALA
BUWAZI-2,BUZINGO,KYAMUSWA,-0.4446562,32.5061703,KALANGALA
BUYIRI-1,BWENDERO,BUJJUMBA,-0.4604924,32.262998,KALANGALA
KALANGALA A-1,KALANGALA B,KALANGALA TOWN COUNCIL,-0.3176154,32.2928636,KALANGALA
KASEKULO-1,BBETA,MUGOYE,-0.3060626,32.1505236,KALANGALA
KASEKULO-2,BBETA,MUGOYE,-0.2650486,32.1231479,KALANGALA
LWABALEGA-1,MULABANA,BUJJUMBA,-0.4896931,32.1873052,KALANGALA
NTUUWA-1,BUWANGA,KYAMUSWA,-0.4127546,32.5119953,KALANGALA
BUDINI MISSION-1,BUDINI,KALIRO TOWN COUNCIL,0.9226362,33.49993,KALIRO
BUKYESA-1,KIYUNGA,BUDOMERO,0.9459962,33.45534,KALIRO
BULANGIRA-1,NAIGOMBWA,KALIRO TOWN COUNCIL,0.8924099,33.51835,KALIRO
BULANGIRA-2,NAIGOMBWA,KALIRO TOWN COUNCIL,0.9068314,33.5141,KALIRO
BUTESA-1,BWAYUYA,KASOKWE,0.9432614,33.49729,KALIRO
KASOKWE NKALU-1,KASOKWE,KASOKWE,0.9240837,33.52142,KALIRO
NAKABAALE-1,KYANI,BUMANYA,0.9633723,33.53373,KALIRO
NAKALANGA-1,BUGONZA,NAMUGONGO,0.9088832,33.4816,KALIRO
NAKALANGA-2,BUGONZA,NAMUGONGO,0.9204262,33.46309,KALIRO
NATWANA-1,BUTEGE,NAMUGONGO,0.8875574,33.4742,KALIRO
BWESA-1,BWESA,LWABENGE,-0.0078533,31.7911378,KALUNGU
BWESA-2,BWESA,LWABENGE,-0.0271289,31.7857161,KALUNGU
KABAALE-1,KABAALE,KYAMULIIBWA,-0.0962546,31.8072753,KALUNGU
KABALE AB-1,KIBISI,LWABENGE,-0.000623,31.7115487,KALUNGU
KABALE AB-2,KIBISI,LWABENGE,-0.0225746,31.7408421,KALUNGU
KALUNGI TC-1,KALUNGU,KALUNGU TOWN COUNCIL,-0.1767327,31.7477065,KALUNGU
KASABBALE-1,KISAWA WARD,KALUNGU TOWN COUNCIL,-0.1851127,31.7777684,KALUNGU
KAYUNGA-1,KITI,BUKULULA,-0.0454304,31.8587033,KALUNGU
KAYUNGA-3,KITI,BUKULULA,-0.0829679,31.8438138,KALUNGU
KIGO-2,KASANJE,KALUNGU,-0.2678867,31.7554351,KALUNGU
KIGONYA-1,KALIRO,KALUNGU,-0.2100702,31.7250139,KALUNGU
KIKOOTA-1,BUGOMOLA,LWABENGE,0.0538256,31.67261,KALUNGU
KISUULA B-1,KYAMULIBWA,KYAMULIIBWA,-0.110471,31.7588976,KALUNGU
KISUULA B-2,KYAMULIBWA,KYAMULIIBWA,-0.0876544,31.7746844,KALUNGU
LUBUMBA-1,CENTRAL WARD,LUKAYA TOWN COUNCIL,-0.1436299,31.8762526,KALUNGU
MUKONO VILLAGE-1,MUKOKO,BUKULULA,-0.1740026,31.8845487,KALUNGU
NAMWANZI-1,BUGONZI,BUKULULA,-0.2417389,31.832359,KALUNGU
NAMWANZI-2,BUGONZI,BUKULULA,-0.2187367,31.8694533,KALUNGU
SEETA-1,BWASANDEKU,KALUNGU,-0.1125552,31.703448,KALUNGU
ZINGA-1,KASAALI,BUKULULA,-0.2296358,31.7965435,KALUNGU
KINAWATAKA-1,MBUYA I,NAKAWA,0.3367669,32.6320999,KAMPALA
MARKET B-1,KIBULI,MAKINDYE,0.3046686,32.5937925,KAMPALA
BUDHUBIRWA -1,BUSANDHA,BUGULUMBYA,0.7904552,33.24191,KAMULI
BUDHUBIRWA -2,BUSANDHA,BUGULUMBYA,0.7778721,33.24599,KAMULI
BUGODHA-1,BUGONDHA,MBULAMUTI,0.8110015,33.05499,KAMULI
BUGOGOLO-1,NAWANENDE,BUGULUMBYA,0.7809725,33.19522,KAMULI
BUGULU-1,KASOLWE,BALAWOLI,1.08443,33.10671,KAMULI
BUKAMBE BUBWOIRA-1,KIYUNGA,MBULAMUTI,0.8151734,33.15559,KAMULI
BULONDO A-1,NAWATUMBI,NAWANYAGO,0.775385,33.13124,KAMULI
BUNANANGWE-1,NALUWOLI,BUTANSI,0.9500405,33.04454,KAMULI
BUSOKO-1,NAMWENDWA,NAMWENDWA,0.9083639,33.25662,KAMULI
BUSUSWA-1,BALOPA,BULOPA,0.831354,33.25687,KAMULI
KAGORORA A-1,MALERE,BIGULI,0.39259,30.83222,KAMWENGE
KAKINGA-1,BIHANGA,BIHANGA,0.2330257,30.60979,KAMWENGE
KANYONZA I-1,KABEREBERE KIJUNGU,BIHANGA,0.2260343,30.63767,KAMWENGE
KATONGA-1,BIGULI,BIGULI,0.2811026,30.78423,KAMWENGE
KATONGA-2,BIGULI,BIGULI,0.379289,30.84891,KAMWENGE
KIBALE NATIONAL PARK-1,RUGONJO,KAHUNGE,0.3201897,30.39289,KAMWENGE
KIBALE NATIONAL PARK-2,RUGONJO,KAHUNGE,0.2907611,30.39502,KAMWENGE
KIGANDO-1,NTONWA,BWIZI,0.4646033,30.71484,KAMWENGE
KYAKARAFA I-1,KYAKARAFA,BUSIRIBA,0.3586222,30.48302,KAMWENGE
KYENKUBA-1,KAHONDO,BUSIRIBA,0.5034275,30.42859,KAMWENGE
KYENKUBA-2,KAHONDO,BUSIRIBA,0.483197,30.40495,KAMWENGE
MUKONO-1,IRUHURA,KABAMBIRO,0.1250912,30.50232,KAMWENGE
MUNYUMA-1,KAMPALA B,BIGULI,0.4136014,30.7761,KAMWENGE
MUTWE-1,NKOMA,NKOMA,0.2642763,30.69773,KAMWENGE
MUTWE-2,NKOMA,NKOMA,0.2723774,30.76677,KAMWENGE
NKONI II-1,BWIZI,BWIZI,0.355144,30.75322,KAMWENGE
RUGARAMA-1,NKONGORO,KAMWENGE,0.164997,30.36305,KAMWENGE
RUSHOROZA-1,KIZIBA,KAMWENGE,0.2376214,30.33945,KAMWENGE
RWEMPIKYI II-1,KYAKANYEMERA,KAHUNGE,0.2331698,30.46703,KAMWENGE
RWENGOBE-1,BUJONGOBE,BUSIRIBA,0.359254,30.39892,KAMWENGE
BURAMEIZI FR-1,Karubeizi,NYAKINONI,-0.7453172,29.737609,KANUNGU
IRARO-1,MUKONO,KAYONZA,-0.9530249,29.6437044,KANUNGU
KANGYEYO-1,KYESHERO,KAYONZA,-0.9227438,29.6108973,KANUNGU
KIGAGA-1,NGARA,MPUNGU,-0.9751108,29.7591354,KANUNGU
KIRAGIRO-1,NYARURAMBI,RUGYEYO,-0.886048,29.805682,KANUNGU
KITOOHA-1,NYARURAMBI,KATETE,-0.7649625,29.7875947,KANUNGU
KYAMAGOTE-1,WESTERN WARD,KANUNGU TOWN COUNCIL,-0.9091516,29.7591149,KANUNGU
KYOZI-1,KIHEMBE,KANYANTOROGO,-0.8109857,29.6627518,KANUNGU
KYOZI-2,KIHEMBE,KANYANTOROGO,-0.8260546,29.6457265,KANUNGU
MASHAKU II-1,MASHAKU,NYAMIRAMA,-0.704209,29.785571,KANUNGU
NYABUBARE-1,NYAMIGOYE,KANYANTOROGO,-0.8610106,29.6745599,KANUNGU
NYAKARAMBI-1,KIHANDA,KIRIMA,-0.8470105,29.7459124,KANUNGU
NYAKATUNGURU-1,RUHANDAGAZI,KAMBUGA,-0.8220131,29.7937255,KANUNGU
NYANGA-1,NYANGA,NYANGA,-0.7263355,29.6659252,KANUNGU
NYARURAMBI-1,RUSHOROZA,KIHIIHI,-0.5691812,29.6969914,KANUNGU
NYARURAMBI-2,RUSHOROZA,KIHIIHI,-0.625001,29.6970176,KANUNGU
NYARURAMBI-3,RUSHOROZA,KIHIIHI,-0.680277,29.737175,KANUNGU
RUHAGO-1,MURAMBA,RUTENGA,-0.9739195,29.8261194,KANUNGU
RWAMIYUMBU-1,KARANGARA,KAYONZA,-0.9107568,29.6781704,KANUNGU
RWENYERERE B B-1,BIHOMBORWA WARD,KIHIIHI TOWN COUNCIL,-0.7624941,29.6727072,KANUNGU
CHEMARE-1,KABEYWA,KABEYWA,1.303089,34.37897,KAPCHORWA
KAPKWATA-1,CHEMOSONG,CHEMA,1.38823,34.39062,KAPCHORWA
KAPSEP-1,SENGWEL,KAPSINDA,1.362521,34.35761,KAPCHORWA
KOKWOMAWE-1,TEGERES,WESTERN DIVISION,1.363695,34.42031,KAPCHORWA
LOCH-1,WERE,KASEREM,1.320344,34.35762,KAPCHORWA
MUNDA-1,KAPLELKO,WESTERN DIVISION,1.425399,34.38958,KAPCHORWA
NATEMA-1,KIMAWA,KAWOWO,1.340133,34.32739,KAPCHORWA
NGARYOMNET-1,KAPTOKWOI,KAPTANYA,1.42231,34.45011,KAPCHORWA
SUMATON-1,KWOTI,EASTERN DIVISION,1.352055,34.47433,KAPCHORWA
TAKAM-1,KAPKWINGI,WESTERN DIVISION,1.380139,34.45004,KAPCHORWA
APOPONG-1,KAPELEBYONG,KAPELEBYONG,2.2646307,33.713018,KAPELEBYONG
OKOBOI-1,OKOBOI,KAPELEBYONG,2.2192591,33.8792076,KAPELEBYONG
GRAZING AREA-1,LOLELIA,LOLELIA,3.499912,33.94592,KARENGA
KAABIRKICHIR-1,LOTELELEIT,LOLELIA,3.350278,33.84024,KARENGA
LOLUKUL SOUTH-1,NAKITOIT,NAPORE KARENGA,3.606959,33.63165,KARENGA
LOUKOMOR-1,LOMEJ,KAWALAKOL,3.980113,33.84217,KARENGA
LOUKOMOR-2,LOMEJ,KAWALAKOL,3.862339,33.83694,KARENGA
NARYONOMOR-1,KAKWANGA,LOBALANGIT,3.530813,33.79222,KARENGA
NASEPERWAE-1,NASEPERWAE,KAWALAKOL,3.726235,33.55053,KARENGA
NASEPERWAE-2,NASEPERWAE,KAWALAKOL,3.822252,33.66661,KARENGA
NASEPERWAE-3,NASEPERWAE,KAWALAKOL,3.765291,33.9276,KARENGA
NASEPERWAE-4,NASEPERWAE,KAWALAKOL,3.702531,33.79392,KARENGA
BUSUNGA-1,KABIRIZI,LAKE KATWE,-0.0078197,29.8904124,KASESE
BUWATHA-1,BUNYANDIKO,KILEMBE,0.204232,29.98001,KASESE
ISAAZI-1,NYAMUGASANI,NYAKATONZI,-0.0698371,29.8535679,KASESE
KANYATETE-1,KANAMBA,KARUSANDARA,0.2269024,30.20273,KASESE
KARUSANDARA-1,KARUSANDARA,KARUSANDARA,0.2153677,30.16246,KASESE
KASUNGWA-1,MUBUKU TOWN BOARD,MALIBA,0.2788587,30.14655,KASESE
KATALEBA-1,KALONGE,KYARUMBA,0.17128,29.96465,KASESE
KATEBE I-1,KATEBE,MALIBA,0.3577436,30.14169,KASESE
KIHARA-1,RUKOKI,NYAMWAMBA DIVISION,0.215387,30.09745,KASESE
KISAMBA I-1,BUGOYE,BUGOYE,0.3002695,30.0706,KASESE
KISANGI FOREST RESERVE-1,RUGENDABARA,KITSWAMBA,0.2985443,30.21817,KASESE
KISANGI FOREST RESERVE-2,RUGENDABARA,KITSWAMBA,0.294443,30.27738,KASESE
MPUMURO-1,BUHUNGA,MALIBA,0.3379689,30.1111,KASESE
NYABIBWA-1,BUGHAGHURA,RUKOKI,0.2248375,30.04499,KASESE
NYAKIRANGO I-1,KATHOLHU,NYAKIYUMBU,-0.0405873,29.7973799,KASESE
QUEEN ELIZABETH NATIONAL PARK-1,MURUTI,NYAKATONZI,-0.0832857,29.8042576,KASESE
RWESANDE II-1,RWESANDE,KYABARUNGIRA,0.3985648,30.13982,KASESE
SEBWE-1,SCHEME,NYAMWAMBA DIVISION,0.1949195,30.13869,KASESE
TOP HILL-1,KYARUKARA,KATWE KABATORO TOWN COUNCIL,-0.1362799,29.8799873,KASESE
UPPER KENDAHI-1,KENDAHI,HIMA TOWN COUNCIL,0.304916,30.18262,KASESE
BULYANKUYEGE-1,KAMUSENENE,MANYOGASEKA,0.3418659,31.67123,KASSANDA
KALAMA MYANZI-1,MYANZI,MYANZI,0.3796043,31.86184,KASSANDA
KALAMA MYANZI-2,MYANZI,MYANZI,0.4384859,31.89414,KASSANDA
KALUNGI KITUMBI-1,KITUMBI,KITUMBI,0.7309432,31.70604,KASSANDA
KAYUNGA KYAKATEBE-1,KYAKATEBE,NALUTUNTU,0.4237736,31.77798,KASSANDA
KIGOGWA-1,NAMIRINGA,KASSANDA,0.5299391,31.7783,KASSANDA
LUGONGWE-1,LUGINGI,KITUMBI,0.6435506,31.74753,KASSANDA
MAKONZI A-1,KITONGO,KASSANDA,0.5674087,31.82754,KASSANDA
NAKATEETE A-1,NAKATEETE,KALWANA,0.5259065,31.68929,KASSANDA
NAMUGANGA II-1,NALUTUNTU,NALUTUNTU,0.4797974,31.79235,KASSANDA
OBARUTE-1,OMUKUNY,ONGONGOJA,2.0718004,34.0066375,KATAKWI
OKWEE-1,KAIKAMOSING,NGARIAM,1.8784741,34.1843911,KATAKWI
GAYAZA-1,KAVULE,BBAALE,1.054098,32.89192,KAYUNGA
KAKOOGE-1,KAFUMBA,KAYONZA,0.8781953,32.95359,KAYUNGA
KALIGOYA-1,NAKYESANJA,KAYONZA,0.942469,32.84158,KAYUNGA
KIWOOZA-1,NSOTOKA,KAYUNGA,0.6839749,32.98803,KAYUNGA
MASEMBE-1,NAMUSAALA,BUSANA,0.8412052,33.00898,KAYUNGA
MASEMBE-2,NAMUSAALA,BUSANA,0.8384567,33.00324,KAYUNGA
NABITULI-1,NAMAYUGE,GALIRAAYA,1.251271,32.84946,KAYUNGA
NAKIRUBI-1,SEETA NYIIZE,KANGULUMIRA,0.561822,33.073684,KAYUNGA
NEKOYEDDE-1,NABUGANYI,BUSANA,0.8041186,33.01114,KAYUNGA
NEKOYEDDE-2,NABUGANYI,BUSANA,0.8123099,33.00677,KAYUNGA
AKAFUNJO-1,NSHUNGA,NKUNGU,0.1851017,30.7712872,KAZO
AKASHAYI-1,IBAARE,KAZO,0.003267,30.7483836,KAZO
BISYA-1,RWEMIKOMA,RWEMIKOMA,0.0442456,30.8868753,KAZO
BUGARIHE I-1,BUGARIHE,RWEMIKOMA,0.0378292,30.7717284,KAZO
BUREMBA-1,KIJOOHA,BUREMBA,0.1227774,30.7252832,KAZO
BYABASITA-1,RWIGI,BURUNGA,0.0266659,30.9234117,KAZO
KAKYERA-1,NTAMBAZI,KAZO,-0.0483744,30.6922167,KAZO
KASHENYI-1,KAYANGA,KAZO,-0.1201204,30.7531253,KAZO
KASHENYI-2,KAYANGA,KAZO,-0.1129564,30.7587454,KAZO
KATENGYETO-1,KIJUMA,RWEMIKOMA,0.0170054,30.8690831,KAZO
BUGUMA-1,NKENDA,MATALE,0.7099127,31.13924,KIBAALE
BUGUMA-2,NKENDA,MATALE,0.703802,31.13676,KIBAALE
KIGALYA-1,BUJOGORO,NYAMARUNDA,0.8294076,30.86414,KIBAALE
KIGALYA-2,BUJOGORO,NYAMARUNDA,0.8405396,30.91462,KIBAALE
KISOJO-1,KISOJO,KYEBANDO,0.8608104,31.09484,KIBAALE
KITOMA-1,KALANGALA,MATALE,0.8040626,31.18362,KIBAALE
MAISUKA A-1,BUBANGO,BUBANGO,0.7293287,31.04339,KIBAALE
MAISUKA A-2,BUBANGO,BUBANGO,0.7345211,30.97056,KIBAALE
MUTAGATA-1,MUTAGATA,KYEBANDO,0.8965512,31.13645,KIBAALE
NGANGI B-1,KITABA,MATALE,0.7512354,31.11057,KIBAALE
BUGABO KYAYIMBA-1,KYAYIMBA,KAPEKE,0.9383654,31.8239978,KIBOGA
KALUNGU-1,KATALAMA,DWANIRO,0.724508,32.1048412,KIBOGA
KALUNGU-2,KATALAMA,DWANIRO,0.7303262,32.1353552,KIBOGA
KANDEGEYA-1,KAKINZI,DWANIRO,0.8067096,32.0403738,KIBOGA
KAYANJA-1,DDEGEYA,KIBIGA,0.8234212,31.7590169,KIBOGA
KIBISI KYEKUMBYA-1,KYEKUMBYA,LWAMATA,0.8837174,31.8875708,KIBOGA
KISWEEKA-1,KISWEEKA,LWAMATA,0.8349921,31.8490559,KIBOGA
KYAKIKOTI-1,BUNINGA,LWAMATA,0.8175595,31.9661404,KIBOGA
KYAMUKWEYA-1,KAYEERA,KAPEKE,0.9501518,31.9671641,KIBOGA
KYAMUKWEYA-2,KAYEERA,KAPEKE,0.9600897,31.9861664,KIBOGA
BUKATIKOKO-1,TIRINYI TOWN BOARD,TIRINYI,1.001951,33.769879,KIBUKU
BUPALAMA-1,KAPYANI,KASASIRA,1.0969664,33.663968,KIBUKU
BUTYAMBA-1,BULIMYA,KIZIRANFUMBI,1.277011,31.24141,KIKUUBE
KINYAMAHWA I-1,BUTOOLE,KYANGWALI,1.218125,30.83358,KIKUUBE
KINYAMAHWA I-2,BUTOOLE,KYANGWALI,1.332433,30.86636,KIKUUBE
KINYAMAHWA I-3,BUTOOLE,KYANGWALI,1.261472,30.95445,KIKUUBE
KINYAMAHWA I-4,BUTOOLE,KYANGWALI,1.159306,30.89478,KIKUUBE
KINYAMAHWA I-5,BUTOOLE,KYANGWALI,1.293485,30.82115,KIKUUBE
KITOOKE KITAANA-1,IGWANJURA,KABWOYA,1.22486,31.12403,KIKUUBE
NDONGO-1,KASEETA,KABWOYA,1.36212,30.95403,KIKUUBE
NDONGO-2,KASEETA,KABWOYA,1.427612,30.95319,KIKUUBE
RWOBUHUKA-1,BUBOGO,KABWOYA,1.344309,31.09959,KIKUUBE
AKAKOMA-1,RUSHERE,KENSHUNGA,-0.2006833,30.9549336,KIRUHURA
AKANAARA-1,KEITANTUREGYE,KINONI,-0.0844251,30.9803033,KIRUHURA
AKANAARA-2,KEITANTUREGYE,KINONI,-0.0248805,31.0047141,KIRUHURA
AKANGYEYA I-1,NTARAMA,KASHONGI,-0.2814637,30.617735,KIRUHURA
AKASHENSHERO-1,RURAMBIRA,NYAKASHASHARA,-0.6004829,31.0910766,KIRUHURA
BITAHATSI-1,KANYANYA,KIKAATSI,-0.2798433,30.8891261,KIRUHURA
BUMARANJARA-1,AKAYANJA,KANYARYERU,-0.4961395,30.9982885,KIRUHURA
EKITOKOZI-1,RWANYANGWE,KASHONGI,-0.1936041,30.6919187,KIRUHURA
KABABEIZI-1,KITABO,KASHONGI,-0.2842925,30.7031999,KIRUHURA
KARENGO-1,NYAKAHITA,NYAKASHASHARA,-0.4042045,31.0123638,KIRUHURA
ALENGO-1,DIIMA,MUTUNDA,2.192446,32.2504935,KIRYANDONGO
KAPUNDO-1,KITWARA,KIRYANDONGO,1.8762746,32.1253736,KIRYANDONGO
MURCHISON FALLS NP-1,KICHWABUGINGO,KIRYANDONGO,2.2222166,32.2274741,KIRYANDONGO
MURCHISON FALLS NP-2,KIRYANKENDE,KIRYANDONGO,1.9919419,31.8071204,KIRYANDONGO
MURCHISON FALLS NP-3,KIRYANKENDE,KIRYANDONGO,2.2767975,31.7559039,KIRYANDONGO
MURCHISON FALLS NP-4,KIRYANKENDE,KIRYANDONGO,2.3006203,31.8424994,KIRYANDONGO
MURCHISON FALLS NP-5,KIRYANKENDE,KIRYANDONGO,2.149996,31.7728195,KIRYANDONGO
MURCHISON FALLS NP-6,KICHWABUGINGO,KIRYANDONGO,2.1903446,32.1004066,KIRYANDONGO
MURCHISON FALLS NP-7,KIRYANKENDE,KIRYANDONGO,2.1586111,31.8970771,KIRYANDONGO
NYINGA I-1,KICHWABUGINGO,KIRYANDONGO,2.0045587,32.0935554,KIRYANDONGO
GAHIZA-1,BUHOZI,BUSANZA,-1.1628608,29.617805,KISORO
GAHIZA-2,BUHOZI,BUSANZA,-1.1726,29.6031694,KISORO
GAHIZA-3,BUHOZI,BUSANZA,-1.1807973,29.6058457,KISORO
IREMERA-1,RUTAKA,KIRUNDO,-1.1717709,29.6741198,KISORO
KABONERO NP-1,RUKONGI,NYARUSIZA,-1.365436,29.652923,KISORO
KABONERO NP-2,GITENDERI,NYARUSIZA,-1.3542894,29.6727602,KISORO
KAFUGA-1,RUBUGURI TOWN BOARD,RUBUGURI TOWN COUNCIL,-1.0929171,29.711979,KISORO
KANYAMEGERI-1,CHIHE,NYAKINAMA,-1.2674751,29.6844771,KISORO
KIGOMA-1,GISORORA,NYAKABANDE,-1.2824068,29.7495581,KISORO
MGAHINGA NP-1,GISOZI,MURAMBA,-1.3685094,29.6255799,KISORO
MIGESHI-1,RWARAMBA,NYAKINAMA,-1.2979642,29.6730596,KISORO
RUGANDU-1,RUBUGURI,RUBUGURI TOWN COUNCIL,-1.1205026,29.660633,KISORO
RUGARYI-1,NYUNDO,NYUNDO,-1.2022039,29.7143796,KISORO
RUGONGWE-1,IREMERA,BUKIMBIRI,-1.1404342,29.7049864,KISORO
SHUNGA-1,NYARUTEMBE,NYABWISHENYA,-1.1089712,29.6028152,KISORO
BUNENA-1,KANTOZI,KICHECHE,-0.0574864,30.3970733,KITAGWENDA
KANYAMBURARA-1,RWENSHAMA,KANARA,0.1129612,30.35906,KITAGWENDA
KAROKARUNGI-1,RWENKUBEBE,NYABBANI,0.0853427,30.42676,KITAGWENDA
KATANGA-1,KANYABIKYERE,MAHYORO,-0.0712868,30.2550485,KITAGWENDA
KYABATIMBO-1,KABALE,NTARA,-0.0355936,30.341485,KITAGWENDA
MPANGA-1,NYAKACWAMBA,NTARA,0.0671704,30.38433,KITAGWENDA
MPEMBWE-1,RUHUNGA,KICHECHE,-0.1219355,30.3559509,KITAGWENDA
MPEMBWE-2,RUHUNGA,KICHECHE,-0.1208428,30.3469271,KITAGWENDA
MUKARERE-1,KYENDANGARA,MAHYORO,-0.1072966,30.2351945,KITAGWENDA
NSINDA II-1,KAKASI,BUHANDA,-0.1117503,30.3234588,KITAGWENDA
NYAKABUNGO-1,KEKUBO,KANARA,0.082344,30.31869,KITAGWENDA
NYAKABUNGO-2,KEKUBO,KANARA,0.0990229,30.30574,KITAGWENDA
NYAKERA A-1,NYAKEERA,MAHYORO,0.0201243,30.33441,KITAGWENDA
NYAKERA A-2,NYAKEERA,MAHYORO,0.058352,30.31301,KITAGWENDA
NYAKERA A-3,NYAKEERA,MAHYORO,0.0201243,30.3344074,KITAGWENDA
NYAMIZO II-1,BUKURUNGO,MAHYORO,-0.0307671,30.2954067,KITAGWENDA
QUEEN ELIZABETH NATIONAL PARK-2,KANARA,KANARA,0.1660266,30.27848,KITAGWENDA
QUEEN ELIZABETH NATIONAL PARK-3,KANARA,KANARA,0.086933,30.27301,KITAGWENDA
RWENJAZA CENTRAL-1,RWENJAZA,NYABBANI,0.1229985,30.42186,KITAGWENDA
RWENTUHA CENTRAL-1,KICWAMBA,NTARA,0.0379732,30.39351,KITAGWENDA
RWENTUHA CENTRAL-2,KICWAMBA,NTARA,0.0195489,30.3863125,KITAGWENDA
AGOT AGOT-1,POGODA EAST,NAMOKORA,3.2787565,33.3507508,KITGUM
ALOTO CENTRAL-1,ORYANG LALANO,LAGORO,3.1439023,33.0312946,KITGUM
ALOTO CENTRAL-2,ORYANG LALANO,LAGORO,3.196828,33.022794,KITGUM
BIPONGO-1,ORYANGA,LABONGO AMIDA,3.2730531,32.9209835,KITGUM
DYEORYANG-1,OKIDI,LABONGO AMIDA,3.1974362,32.8093897,KITGUM
LAPANA B-1,PAIBONY,KITIGUM MATIDI,3.3130592,33.0222994,KITGUM
LAYIK WEST-1,LAMOLA,LABONGO AMIDA,3.2692091,32.8506754,KITGUM
PALUBAR A-1,KITENY,OROM,3.473442,33.4148147,KITGUM
PALUBAR A-2,KITENY,OROM,3.5373885,33.4600285,KITGUM
PUDO-1,PUDO,MUCWINI,3.4173815,32.9791624,KITGUM
ABACHI-1,NYOKE,KULUBA,3.514755,30.88244,KOBOKO
AMGBARU-1,AYIPE,KULUBA,3.60226,30.97733,KOBOKO
AMGBARU-2,AYIPE,KULUBA,3.560357,30.92393,KOBOKO
ARAGALE-1,PAMODO,KULUBA,3.655806,31.00268,KOBOKO
ARAGALE-2,PAMODO,KULUBA,3.544908,30.98454,KOBOKO
BANGO-1,PADROMBU,LOBULE,3.427923,31.01938,KOBOKO
BUSIA-1,NYAMBIRI,KULUBA,3.643706,30.9528,KOBOKO
CHAKULIA-1,CHAKULIA,LUDARA,3.620276,31.05049,KOBOKO
CHAKULIA-2,CHAKULIA,LUDARA,3.625175,31.04999,KOBOKO
GBOROKOLONGO-1,GBOROKOLONGO,ABUKU,3.425696,31.0575,KOBOKO
ABONGOJOK-1,OKWERODOT,OKWERODOT,2.331885,32.84233,KOLE
ADAKINGO-1,BAR AKALO,AKALO,2.128973,32.9019,KOLE
ALIT-1,BARONGIN,ALITO,2.401581,32.81542,KOLE
AMUGE A-1,AMUGE,ALITO,2.477585,32.80842,KOLE
AYAT NINO-1,OMOLODYANG,BALA,2.158853,32.71499,KOLE
AYAT NINO-2,OMOLODYANG,BALA,2.165574,32.68115,KOLE
AYAT NINO-3,OMOLODYANG,BALA,2.158239,32.70633,KOLE
BANYA-1,WESTERN B,KOLE TOWN COUNCIL,2.250409,32.69555,KOLE
ODONGO PEYAMO-1,ADELLOGO,OKWERODOT,2.429175,32.87709,KOLE
ONYANY-1,OMWARA,BALA,2.148203,32.75331,KOLE
KADUKAN-1,KOTYANG,LOSILANG DIVISION,3.0357058,34.1086142,KOTIDO
NAMONIC-1,NAKWAKWA,RENGEN,2.9894176,33.8803973,KOTIDO
AJESA-1,OMATENGA,KUMI,1.5654116,33.9292537,KUMI
KANYUM-1,KANYUM,KANYUM,1.3852073,33.9375752,KUMI
ADAROKOT-1,OWINY,NAMBEISO,1.9276809,32.9094684,KWANIA
AJOBO-1,BANYA,INOMO,2.1081889,32.7145229,KWANIA
ALIKLPINY-1,ALUKA,INOMO,2.0628793,32.6275813,KWANIA
ANGU OKAI-1,ABULI,NAMBEISO,1.9132138,32.8682831,KWANIA
APIRE A-1,APIRE,ADUKU,1.9947248,32.7024392,KWANIA
BAR ACER B-1,ACHUNGI,ABONGOMOLA,2.0280588,32.8202576,KWANIA
BUNGUDU-1,AJOK,INOMO,2.101424,32.6471084,KWANIA
EMIN D-1,ANWANGI,NAMBEISO,1.8483378,32.7558146,KWANIA
EMIN D-2,ANWANGI,NAMBEISO,1.9246596,32.724769,KWANIA
OKWIR-1,ALIDO,CHAWENTE,1.780671,32.6265359,KWANIA
CHEMURON-1,SUNDET,NGENGE,1.506923,34.6173,KWEEN
KAKWICH-1,CHEPSIKUNYA,NGENGE,1.558456,34.55808,KWEEN
KAPLOBOTWO-1,KABACHIRIYA,NGENGE,1.501322,34.53021,KWEEN
KAYABAI-1,ALOMAN,KAPTUM,1.459072,34.58315,KWEEN
KEROP-1,KEPROP,KAPTOYOY,1.424171,34.51484,KWEEN
LKIL-1,LIKIL,BENET,1.347301,34.52477,KWEEN
NDILAY-1,RARAWA,KAPRORON,1.444126,34.6715,KWEEN
SIKWA-1,SIKWA,NGENGE,1.543725,34.45471,KWEEN
SUMOTWO-1,NYIMEI,KWANYIY,1.36666,34.64911,KWEEN
TULWO EAST-1,KWOSIR,KWOSIR,1.389228,34.58338,KWEEN
BUKEEYA-1,KISOZI,WATTUBA,1.01968,31.78839,KYANKWANZI
BWABA-1,LWEBISANJA,KYANKWANZI,1.181957,31.89729,KYANKWANZI
IKAMIRO-1,MPANGO,KYANKWANZI,1.278795,31.67845,KYANKWANZI
IKAMIRO-2,MPANGO,KYANKWANZI,1.269427,31.65725,KYANKWANZI
KAGALAMA-1,BUTEMBA WARD,BUTEMBA TOWN COUNCIL,1.129057,31.63031,KYANKWANZI
KARAMBI-1,KIDUMI,WATTUBA,1.029091,31.7434,KYANKWANZI
KASEJJERE-1,KASEJJERE,KYANKWANZI,1.097474,31.72223,KYANKWANZI
KASEJJERE-2,KASEJJERE,KYANKWANZI,1.13486,31.70673,KYANKWANZI
KITEREDDE-1,KATUUGO,NSAMBYA,1.3236,31.56951,KYANKWANZI
KITESA-1,KITEESA,BANANYWA,1.168877,31.39531,KYANKWANZI
KIZUNGU-1,NTUNDA,BANANYWA,1.230051,31.43286,KYANKWANZI
KYALAJONI-1,LUBIRI,KYANKWANZI,1.231132,31.67902,KYANKWANZI
LUWONGA FR-1,KITABONA,NTWETWE,0.8684246,31.65957,KYANKWANZI
SUNGA-1,KYANKWANZI,KYANKWANZI TOWN COUNCIL,1.164945,31.83095,KYANKWANZI
SUNGA-2,KYANKWANZI,KYANKWANZI TOWN COUNCIL,1.158097,31.78609,KYANKWANZI
BWIZA KYAMALABO-1,KYAKA II REFUGE SETTLEMENT CAMP,MPARA,0.3437664,31.0835963,KYEGEGWA
KATONGA GAME RESERVE-1,RUTARAKA,RWENTUHA,0.230709,30.8187984,KYEGEGWA
KYAKASAMBA-1,KIJONGOBYA,RUYONZA,0.355706,30.9864657,KYEGEGWA
KYAKASAMBA-2,KIJONGOBYA,RUYONZA,0.3183296,31.0211347,KYEGEGWA
MISENYI-3,KIJAGUZO,KAKABARA,0.564593,30.975349,KYEGEGWA
MUGYERA-1,MAGOMA,HAPUYO,0.6949547,30.9230894,KYEGEGWA
RUCWAMIGO-1,IRINGA,HAPUYO,0.5671346,31.1299842,KYEGEGWA
RWENGENYE-1,KATIIRWE,RUYONZA,0.1962824,30.9845845,KYEGEGWA
RWENTUREGYE-1,NKAWA,HAPUYO,0.6293753,31.1256799,KYEGEGWA
RWENTUREGYE-2,NKAWA,HAPUYO,0.6092799,31.1758243,KYEGEGWA
BURAMBA-1,NGOMBE,KIHUURA,0.6155828,30.75314,KYENJOJO
IGOMA B-1,KATAMBALE,KYARUSOZI,0.8305523,30.53228,KYENJOJO
IHAMBA-1,MABAALE,NYANTUNGO,0.6013965,30.59474,KYENJOJO
IHAMBA-2,MABAALE,NYANTUNGO,0.5531837,30.60358,KYENJOJO
KASABA TRADING CENTRE-1,KASABA,KYARUSOZI,0.8557697,30.6032578,KYENJOJO
KATOOKE A-1,KATOOKE,KATOOKE TOWN COUNCIL,0.7346621,30.70656,KYENJOJO
KIHOIGA-1,KYABARANGA,BUGAAKI,0.7518007,30.44378,KYENJOJO
KITANYAATA-1,HAKATOMA,KYENJOJO TOWN COUNCIL,0.6488966,30.62269,KYENJOJO
KITANYAATA-2,HAKATOMA,KYENJOJO TOWN COUNCIL,0.6482018,30.63337,KYENJOJO
KYARUSOZI-1,KYARUSOZI,KYARUSOZI TOWN COUNCIL,0.769943,30.52055,KYENJOJO
MABAALE-1,RWENJAZA,BUFUNJO,0.77215,30.82017,KYENJOJO
MISINDO-1,KIGARAALE,KIGARAALE,0.4514476,30.62748,KYENJOJO
NTOOMA B-1,NTOOMA,KYENJOJO TOWN COUNCIL,0.5846378,30.64078,KYENJOJO
NYABUGOROGORO-1,MISANDIKA,KYENJOJO TOWN COUNCIL,0.6494541,30.61407,KYENJOJO
NYAKARONGO-1,NYAKARONGO,NYABUHARWA,0.5995381,30.54555,KYENJOJO
BUGOMBE-1,KANABULEMU,KYEBE,-0.9452132,31.6654577,KYOTERA
BUZINDE-1,GGWANDA,KYEBE,-0.8483679,31.6934216,KYOTERA
BUZINDE-2,GGWANDA,KYEBE,-0.9197987,31.717713,KYOTERA
BUZIRANDUULU-1,BUZIRANDUULU,KASAALI,-0.5813857,31.5673689,KYOTERA
BWAMIJJA-1,BWAMIJJA,KABIRA,-0.6979118,31.6401964,KYOTERA
KABONELA-1,SANGO BAY,KAKUUTO,-0.9184659,31.5018823,KYOTERA
KABONELA-2,SANGO BAY,KAKUUTO,-0.9840481,31.4896838,KYOTERA
KABONELA-3,SANGO BAY,KAKUUTO,-0.9213557,31.4315885,KYOTERA
KAMPANGI-1,MINZIRO,KYEBE,-0.978639,31.5670253,KYOTERA
KASAKA-1,NDOLO,KABIRA,-0.7320469,31.5780564,KYOTERA
KASAKA-2,NDOLO,KABIRA,-0.7710764,31.6716973,KYOTERA
KATUNTU-1,NJALA,KABIRA,-0.6601215,31.6101315,KYOTERA
KIBAALE MAYANJA-1,MAYANJA,KAKUUTO,-0.7847196,31.5561007,KYOTERA
KIBAALE MAYANJA-2,MAYANJA,KAKUUTO,-0.8668317,31.5814476,KYOTERA
KYAMBOGO-1,KAYANJA,LWANKONI,-0.5762478,31.682911,KYOTERA
LUKULAVU-1,KYEBISAGAZI,KAKUUTO,-0.9948695,31.4653663,KYOTERA
LUKULAVU-2,KYEBISAGAZI,KAKUUTO,-0.9814889,31.4140787,KYOTERA
MARAMAGAMBO FOREST RESERVE-1,MARAMAGAMBO FOREST RESERVE,KYEBE,-0.8741656,31.6155145,KYOTERA
MIZINDA-1,NANGOMA,KYEBE,-0.9985304,31.6958857,KYOTERA
NNINZI NORTH-1,NNINZI WARD,KALISIZO TOWN COUNCIL,-0.5174005,31.6271897,KYOTERA
APYETTA WEST-1,APYETTA,PALABEK OGILI,3.326135,32.42911,LAMWO
CINGLONYO-1,POTIKA,AGORO,3.76347,32.84286,LAMWO
GRAZING LAND-1,AYUU ALALI,PALABEK KAL,3.596513,32.53321,LAMWO
GRAZING LAND-2,AYUU ALALI,PALABEK KAL,3.530117,32.57819,LAMWO
GUCI-1,WANGTIT,PADIBE EAST,3.503312,32.86838,LAMWO
KIIRA-1,PADWAT,PALABEK OGILI,3.500594,32.40195,LAMWO
LAKWALA WEST-1,LICWAR,LOKUNG,3.692753,32.57664,LAMWO
LAROBI-1,PALUGA,PALOGA,3.586732,32.88202,LAMWO
LATIKIRIU-1,DIBOLYEC,LOKUNG,3.677752,32.82559,LAMWO
LATIKIRIU-2,DIBOLYEC,LOKUNG,3.757187,32.78894,LAMWO
LATIKIRIU-3,DIBOLYEC,LOKUNG,3.645545,32.74092,LAMWO
LIPAN HUNTING AREA-1,LAWIYE ODUNY,MADI OPEI,3.706434,33.19873,LAMWO
LIPAN HUNTING AREA-2,LAWIYE ODUNY,MADI OPEI,3.65335,33.28238,LAMWO
LIPAN HUNTING AREA-3,LAWIYE ODUNY,MADI OPEI,3.607309,33.15808,LAMWO
MOROTO WEST-1,MOROTO,PALABEK GEM,3.3249766,32.6670328,LAMWO
OMWA-1,PARAPONO,LOKUNG,3.740292,32.69758,LAMWO
OPOKI EAST-1,MADI KILOC,PADIBE WEST,3.439948,32.7743,LAMWO
PAWENA CENTRAL-1,CUBU,PALABEK GEM,3.22072,32.64428,LAMWO
POBUDI-1,MADI OPEI TOWN BOARD,MADI OPEI,3.592656,33.08675,LAMWO
TUMANUN B-1,POBAR,AGORO,3.681644,33.04785,LAMWO
ALENGA-1,OKWALOAMARA,OGUR,2.4632085,32.8900131,LIRA
ANAI PIDA-1,ANAI,LIRA,2.2237059,32.8383427,LIRA
APUA A-1,APUA,AROMO,2.5752902,32.8034167,LIRA
APUYA-1,ONYAKEDE,AMACH,2.0424313,33.0436078,LIRA
ATIRA-1,ONYWAKO,BARR,2.2299875,33.0917076,LIRA
BOKE AGALI-1,IREDA EAST,CENTRAL DIVISION,2.2254493,32.898398,LIRA
OBUTOWELO B-1,KAKOGE WARD,OJWINA DIVISION,2.2372696,32.8784991,LIRA
OKIM-1,ODORO,AROMO,2.5338413,32.8294612,LIRA
PERAC-1,ALER,OGUR,2.3685326,32.9236766,LIRA
TEYAO-1,ABUNGA,BARR,2.259147,33.0222243,LIRA
BUGWANALA-1,WALIBO,WAIBUGA,0.604834,33.39172,LUUKA
BUKAPARA-1,ITAKAIBOLU,WAIBUGA,0.6329805,33.36745,LUUKA
BUSANDHA A-1,NABYOTO,BUKOOMA,0.8874878,33.35278,LUUKA
BUYIMA-1,NTAYIGIRWA,IKUMBYA,1.056079,33.33311,LUUKA
BUYIMA-2,NTAYIGIRWA,IKUMBYA,1.010586,33.34129,LUUKA
KASOZI-1,NAMALEMBA,BULONGO,0.8131,33.3301,LUUKA
KATALA KABI-1,BUWOLOGOMA,BUKANGA,0.7306442,33.40634,LUUKA
KATALA KABI-2,BUWOLOGOMA,BUKANGA,0.736064,33.36724,LUUKA
KIWANYI-1,LWAKI,WAIBUGA,0.6561262,33.4114161,LUUKA
NAIGOBYA B-1,NAIGOBYA,BUKOOMA,0.8487016,33.36003,LUUKA
NAKISENYI A-1,BUGONYOKA,BULONGO,0.7862806,33.30317,LUUKA
NANVUNANO B-1,BUSIIRO,WAIBUGA,0.6561553,33.31627,LUUKA
NAWANYAGO BUGOBI-1,NAWANYAGO,IRONGO,0.70289,33.22779,LUUKA
WANDAGO NORTH-1,IKUMBYA,IKUMBYA,0.9520803,33.34551,LUUKA
WANDAGO NORTH-2,IKUMBYA,IKUMBYA,1.004395,33.30745,LUUKA
BAAGYA-1,NAKIGOZA,ZIROBWE,0.7268156,32.70194,LUWERO
BUFUMBANSWA BUKEEKA-1,BUKEEKA,KATIKAMU,0.7430084,32.55575,LUWERO
BUWANUKA-1,KITENDERI,KAMIRA,1.092567,32.61933,LUWERO
DDEGEYA CENTRAL-1,DDEGEYA,KALAGALA,0.6001616,32.58077,LUWERO
KIGOMBE-1,KIGOMBE,LUWERO,0.8017429,32.4982,LUWERO
KIGOMBE-2,KIGOMBE,LUWERO,0.8102899,32.4825,LUWERO
KIGOMBE-3,KIGOMBE,LUWERO,0.7985991,32.5164,LUWERO
KYEVUNZE-1,KASAALA,LUWERO,0.862895,32.46148,LUWERO
NABIGOZA-1,KALWANGA,BUTUNTUMULA,0.9577785,32.37792,LUWERO
NABIGOZA-2,KALWANGA,BUTUNTUMULA,1.072861,32.36044,LUWERO
NSAVU-1,NSAVU,MAKULUBITA,0.589375,32.452,LUWERO
TEMA-1,WABUSANA,KIKYUSA,0.8901958,32.67174,LUWERO
TIMBA SANGA-1,NGALONKALU,ZIROBWE,0.622554,32.71279,LUWERO
WAKIVULE-1,KIZIBA,KIKYUSA,0.853708,32.705055,LUWERO
WOBULENZI TC-1,WOBULWNZI TOWN COUNCIL,WOBULWNZI TOWN COUNCIL,0.7053488,32.5287732,LUWERO
BUWUMULIRO-1,BIJAABA,KYAZANGA,-0.4343682,31.3389905,LWENGO
CENTRAL ZONE-1,KINONI TOWN BOARD,KISEKKA,-0.3522366,31.5527429,LWENGO
CENTRAL ZONE-2,KINONI TOWN BOARD,KISEKKA,-0.3537583,31.5515644,LWENGO
KATOVU CENTRAL-1,KATOVU TOWN BOARD,MALONGO,-0.3827865,31.2394118,LWENGO
KIKENENE A-1,KIKENENE,KISEKKA,-0.4368108,31.5665817,LWENGO
KIKENENE A-2,KIKENENE,KISEKKA,-0.4247985,31.5852446,LWENGO
KIWANDE-1,KABARUNGI WARD,LWENGO TOWN COUNCIL,-0.3881377,31.4887356,LWENGO
KIWANDE-2,KABARUNGI WARD,LWENGO TOWN COUNCIL,-0.3727871,31.4917527,LWENGO
KYETUME-2,BUSUBI,KISEKKA,-0.3969559,31.5405782,LWENGO
KYETUME-3,BUSUBI,KISEKKA,-0.3929477,31.5617042,LWENGO
LUTOVU A-1,KIGEYE,MALONGO,-0.3586821,31.3216465,LWENGO
MINYEGENYO-1,NAKYENYI,LWENGO,-0.4462758,31.4893759,LWENGO
MUSUUBIRO-1,MUSUUBIRO,LWENGO,-0.3463517,31.4317505,LWENGO
NAMUGAMBIRA-1,NKONI,KKINGO,-0.3511369,31.6513156,LWENGO
RUTEETE-1,KITEREDDE,KKINGO,-0.3148212,31.7071867,LWENGO
BULUNGA-1,MPUMUDDE,MPUMUDDE,-0.2782379,31.2595453,LYANTONDE
KABUTETERA-1,KATEBE,KASAGAMA,-0.0890468,31.1540834,LYANTONDE
KABUTETERA-2,KATEBE,KASAGAMA,-0.1135162,31.1679908,LYANTONDE
KIBISI-1,KIYINDA,KALIIRO,-0.3244918,31.1588384,LYANTONDE
KYEMAMBA-1,KYEMAMBA,MPUMUDDE,-0.1446522,31.2508523,LYANTONDE
KYEMPISI-1,KYAKUTEREKERA,KALIIRO,-0.1943207,31.1566053,LYANTONDE
MUZAIRE B-1,BUYANJA,KASAGAMA,-0.112245,31.1424071,LYANTONDE
RWEERA-1,RWEERA,MPUMUDDE,-0.2066776,31.2136647,LYANTONDE
RWETTAMU-1,WABUSAANA,KINUUKA,-0.2868935,31.149996,LYANTONDE
SPECIAL AREA-1,KALAGALA,LYANTONDE SC,-0.3815451,31.163071,LYANTONDE
ABIRI-1,KWILI,RIGBO,3.112574,31.42458,MADI OKOLLO
ABIRICENDUKU-1,OCEA,RIGBO,3.041093,31.34507,MADI OKOLLO
AYIO-1,AJIBU,OKOLLO,2.706943,31.13542,MADI OKOLLO
KOLOLO-1,LUBA,RIGBO,3.007588,31.40868,MADI OKOLLO
VUU-1,OKOLLO,OKOLLO,2.642654,31.21785,MADI OKOLLO
BUBITUMU-1,KIMALURI,BUSUKUYA,0.8557545,34.23825,MANAFWA
BUKHINDE II-1,BUNAMUKHEYA,SIBANGA,0.8886284,34.22584,MANAFWA
BUKIBORI I-1,BUKOMA,BUKUSU,0.9050453,34.28848,MANAFWA
BUMUKHAMA-1,BUTIRU TOWN BOARD,BUTIRU,0.8394395,34.26664,MANAFWA
BUMUKHAMA-2,BUTIRU TOWN BOARD,BUTIRU,0.831454,34.26066,MANAFWA
BUMUKHAMA-3,BUTIRU TOWN BOARD,BUTIRU,0.829009,34.30113,MANAFWA
BUMUKHWANA-1,BUWESONGA,WESWA,0.9758082,34.3452,MANAFWA
BUMULULU-1,BUWAKORO,BUGOBERO,0.8257143,34.23207,MANAFWA
BUMULUMU I-1,BUGOBERO,KHABUTOOLA,0.887073,34.25105,MANAFWA
BUMULUMU I-2,BUGOBERO,KHABUTOOLA,0.881819,34.26283,MANAFWA
BUNAMBAFU B-1,BUYINZA TOWN BOARD,BUYINZA TOWN COUNCIL,0.797977,34.28458,MANAFWA
BUNAMBAFU-1,BUMATANDA,BUTIRU,0.80865,34.25481,MANAFWA
BUNAMONE-1,FULUMA BUTTA,BUTTA,0.93338,34.24972,MANAFWA
BUWELE II-1,LWANJUSU,BUSUKUYA,0.8215621,34.21085,MANAFWA
NAMASARI I-1,BUWASYEBA,SIBANGA,0.916786,34.23667,MANAFWA
ALIRO WEST-1,LOINYA,YIVU,3.286807,31.01031,MARACHA
AZURE HILL-1,KIMIRU,OLUFEE,3.242104,30.88684,MARACHA
OFFUDE HILLS-1,ANYIVU,TARA,3.277887,31.04587,MARACHA
OTUKALIRI-1,OMBAVU,TARA,3.294537,31.01537,MARACHA
OTUKALIRI-2,OMBAVU,TARA,3.307446,31.02135,MARACHA
BISANJE WEST-1,BISANJE,KABONERA,-0.4181413,31.6996886,MASAKA
BUKAAYI B-1,SSUNGA,BUKAKATA,-0.2598546,31.8986371,MASAKA
BUKOTO-1,KAKUNYU,KABONERA,-0.3895648,31.6133046,MASAKA
BUKOTO-2,KAKUNYU,KABONERA,-0.3769718,31.5974544,MASAKA
BUTENZI BUSAALE-1,MAZINGA,BUWUNGA,-0.3552357,31.8184337,MASAKA
BUWUNDE BAMBA-1,KYANTALE,KYANAMUKAAKA,-0.5152632,31.6997029,MASAKA
KAJUNA CHURCH-1,KASAKA,BUWUNGA,-0.3813452,31.8278098,MASAKA
KAYUNGA-2,BUTALE,KABONERA,-0.4068618,31.6659451,MASAKA
KILAMBURA-1,BBUULIRO,KYESIIGA,-0.644016,31.7795857,MASAKA
KYALUGO-1,BUGABIRA,MUKUNGWE,-0.2814946,31.713482,MASAKA
LAKE VICTORIA-1,BUKIBONGA,BUKAKATA,-0.3341672,31.9620749,MASAKA
LAKE VICTORIA-3,BUKIBONGA,BUKAKATA,-0.2714793,32.0047813,MASAKA
LUVULE-1,KATWADDE,MUKUNGWE,-0.332102,31.8554208,MASAKA
MIJJUNJU-1,BUYAGA,KYANAMUKAAKA,-0.5376997,31.7925312,MASAKA
MULEMA-1,KYESIIGA,KYESIIGA,-0.5821678,31.7577489,MASAKA
MWERUKA B-1,BUGERE,KYESIIGA,-0.5608155,31.6930433,MASAKA
NAKIYAGA-1,KANYWA,BUWUNGA,-0.4739742,31.8391136,MASAKA
NAKIYAGA-2,KANYWA,BUWUNGA,-0.432127,31.899081,MASAKA
NAKIYAGA-3,KANYWA,BUWUNGA,-0.4613,31.7757,MASAKA
BUDONDO F R-1,BUDONDO F R,BUDONDO,2.140328,31.69262,MASINDI
BUDONDO F R-2,BUDONDO F R,BUDONDO,1.926041,31.58436,MASINDI
BYERIMA-1,KITAMBA,BWIJANGA,1.511554,31.62322,MASINDI
KANYEGE-1,NYABYEYA,BUDONDO,1.663117,31.51092,MASINDI
KARUMA FR-1,KARUMA FR,PAKANYI,1.906852,31.85648,MASINDI
KARUMA FR-2,KARUMA FR,PAKANYI,1.90031,31.70004,MASINDI
KARUMA FR-3,KARUMA FR,PAKANYI,2.007549,31.69354,MASINDI
KYEDIKYO-1,ISIMBA,MIIRYA,1.7219057,31.7922034,MASINDI
MAIHA-1,KAHEMBE,BWIJANGA,1.55228,31.61713,MASINDI
RUSANGURA-1,NTOOMA,BWIJANGA,1.474697,31.65985,MASINDI
BUKOMYA-1,BUFULUBI,IMMANYIRO,0.4603736,33.4401,MAYUGE
BUSU-1,MAINA,MPUNGWE,0.4621419,33.51673,MAYUGE
BUSU-2,MAINA,MPUNGWE,0.4602336,33.48978,MAYUGE
BUTANGALA B-1,BUTANGALA,BUSAKIRA,0.395615,33.54276,MAYUGE
IWUBA-1,NANGAMBO,BUWAAYA,0.4796344,33.47282,MAYUGE
LUUBU A-1,BUYEMBA,BUKATUBE,0.4079011,33.46078,MAYUGE
MAUTA-1,MAUTA,BUKATUBE,0.4141644,33.4332,MAYUGE
MAYUGE CENTRAL-1,KAVULE,MAYUGE TOWN COUNCIL,0.4538507,33.47807,MAYUGE
NDUWA BEACH CAMP-1,BUKATABIRA,MALONGO,0.294159,33.56002,MAYUGE
NDUWA BEACH CAMP-2,BUKATABIRA,MALONGO,0.2077156,33.50848,MAYUGE
AFYA-1,AFYA,NAKALOKE TOWN COUNCIL,1.12274,34.15838,MBALE
AISA TEKO LOWER-1,AISA,NAMANYONYI,1.125009,34.20436,MBALE
BILINDA-1,BUSANO,BUSANO,1.031179,34.26746,MBALE
BUBETSE LOWER-1,BUMASIKYE,BUSOBA,0.9863288,34.14682,MBALE
BUBETSYE UPPER-1,BUBETSYE,NYONDO,0.9983776,34.23565,MBALE
BUFUKHULA CENTRAL-1,BUFUKHULA,BUSIU,0.9077573,34.12885,MBALE
BUKAYA-1,TOMA,BUMASIKYE,0.9048652,34.19946,MBALE
BUKHEIDE-1,BUSOBA,BUSOBA,0.9426632,34.16095,MBALE
BUKHUNGALA-1,MOONI,BUNGOKHO MUTOTO,1.065687,34.20719,MBALE
BUKUBA-1,BUMADANDA,BUBYANGU,1.073835,34.2795,MBALE
BULEKYA A-1,WANINDA,LUKHONGE,0.8534142,34.1995,MBALE
BUMALIRO-1,BUNGWANYI,BUKHIENDE,0.959021,34.25943,MBALE
BUMUSAMALI-1,BUMUGUYA,BUKONDE,1.093128,34.24355,MBALE
BUMWELU LOWER-1,BUMANGENI,BUNGOKHO,1.025698,34.18457,MBALE
BUNALWELE B-1,ISANGO,BUKHIENDE,0.9473652,34.2224,MBALE
BUNAMORI-1,BUNAMORI,BUBYANGU,1.080404,34.31268,MBALE
BUTUNDE-1,BUNANIMI,BUSOBA,0.9639885,34.19106,MBALE
GREEN PASTURE-1,NABITILI,BUKASAKYA,1.065987,34.14537,MBALE
KHAMOTO-1,KHAMOTO,BUNGOKHO,1.029408,34.12863,MBALE
KOLANI CENTRAL-1,BUNAMBUTYE,BUSIU,0.89343,34.16834,MBALE
AKAGYERA-1,NGANGO,KAGONGI,-0.2624014,30.5258442,MBARARA
KABARE-1,KYANDAHI,KAGONGI,-0.28799,30.540179,MBARARA
KABURAISHOKYE-1,RWEBISHEKYE,RWANYAMAHEMBE,-0.4288214,30.589308,MBARARA
KACENCE-1,KAKIIKA,KAKIIKA DIVISION,-0.5711267,30.6596259,MBARARA
KANAMA-1,MITOOZO,KASHARE,-0.3716237,30.6024755,MBARARA
KANYEGANYEGE-1,KABAARE,RUBINDI,-0.3217582,30.5636718,MBARARA
KATAMBA-1,NYAKINENGO,BIHARWE DIVISION,-0.5396144,30.7127968,MBARARA
KYAGAJU-1,MABIRA,RWANYAMAHEMBE,-0.4924488,30.5435967,MBARARA
RWENKANJA-1,RUSHOZI,RUBAYA,-0.500853,30.679755,MBARARA
RWENTURAGARA-1,RWENSHANKU,BUBAARE,-0.5740057,30.526275,MBARARA
BIKUNGU-1,IRARAMIRA,KIYANGA,-0.5544876,29.9255301,MITOOMA
BUKIRIRO I-1,KIYANGA,KIYANGA,-0.5137308,29.9550684,MITOOMA
BUREBANE-1,RWANJA WEST,RUREHE,-0.722812,29.9982609,MITOOMA
BURINDI-1,RUKARARWE,KATENGA,-0.6247736,30.0987798,MITOOMA
BURINDI-2,RUKARARWE,KATENGA,-0.641638,30.1287919,MITOOMA
BWEIBARE I-1,KYANZAIRE,KASHENSHERO,-0.5841993,29.9967739,MITOOMA
BWERA A-1,BWERA,KANYABWANGA,-0.6166904,29.9246518,MITOOMA
BWERA A-2,BWERA,KANYABWANGA,-0.6244107,29.9668168,MITOOMA
IHUNGU NYABUBAARE PARISH-1,NYABUBAARE,KABIRA,-0.6906676,30.0347161,MITOOMA
IHUNGU NYABUBAARE PARISH-2,NYABUBAARE,KABIRA,-0.6842338,30.0411029,MITOOMA
IRANGARA-1,RUREHE SOUTH,RUREHE,-0.689574,29.9964527,MITOOMA
IRANGARA-2,RUREHE SOUTH,RUREHE,-0.6855148,30.0034018,MITOOMA
ITAARA-1,KATAGATA,MAYANGA,-0.7402978,30.0392413,MITOOMA
KAARO-1,RUREHE NORTH,KABIRA,-0.6730027,30.0067875,MITOOMA
KABARE I-1,KARIMBIRO,BITEREKO,-0.5091222,29.9923394,MITOOMA
KABOROGOTA A-1,RUTOOMA,RUREHE,-0.6546798,29.9595862,MITOOMA
KALINZU FR-1,KIBARE,BITEREKO,-0.4778523,30.0229434,MITOOMA
KANYAMPIHA-1,KASHASHA,KIYANGA,-0.52034,29.9673592,MITOOMA
KICERERE-1,KYEIBARE,MUTARA,-0.6573841,30.0789893,MITOOMA
KIRERA II BUKONGORO PARISH-1,BUKONGORO,MUTARA,-0.6720893,30.0889772,MITOOMA
BUKUMULA-1,KIRYOKYA,KALANGALO,0.5795919,32.0249102,MITYANA
BUYAGA-1,NABUNBUGU,BULERA,0.5097302,32.0351142,MITYANA
KALAMA NSAMBYA-1,NSAMBYA,KAKINDU,0.3032407,32.1917981,MITYANA
KANSULETI-1,KATAKALA,CENTRAL DIVISION,0.3815464,32.0022953,MITYANA
KAWOOMYA-1,KIDUUZI WARD,SSEKANYONYI,0.6036426,32.2148149,MITYANA
KITEBERE-1,KITEBERE,BUTAYUNJA,0.3419313,32.0992018,MITYANA
KITO MUGULU-1,MUGULU,NAMUNGO,0.4472482,32.1522799,MITYANA
KYEWANISE B-1,KALAMA,KALANGALO,0.5962895,31.9667088,MITYANA
LUKYAMU-1,NAKASEETA,BUSIMBI DIVISION,0.4421953,32.06748,MITYANA
LUKYAMU-2,NAKASEETA,BUSIMBI DIVISION,0.431791,32.05865,MITYANA
LUYAMBI-1,NAMIGAVU,KIKANDWA,0.6047053,32.1629498,MITYANA
NAKIRYA-1,KABBEGA,SSEKANYONYI,0.5329484,32.1706038,MITYANA
NDIBULUNGI-1,TTAMU,TTAMU DIVISION,0.4220003,32.10541,MITYANA
NTALANDA-1,BULUMA,BUTAYUNJA,0.3171503,32.0283323,MITYANA
ZIRIBANDA NAMAGIRI-1,KIREKU,BUSIMBI DIVISION,0.4376745,32.05411,MITYANA
SOUTH KARAMOJA HUNTING AREA-1,MOGOTH,RUPA,2.7479518,34.473368,MOROTO
SOUTH KARAMOJA HUNTING AREA-2,MOGOTH,RUPA,2.9693222,34.4447383,MOROTO
ABESO-1,PAJAKIRI,METU,3.6946756,31.8926646,MOYO
ABESO-2,PAJAKIRI,METU,3.7337922,31.8756748,MOYO
ALU-1,PAMOYI,METU,3.6255382,31.7646502,MOYO
ARAPI-1,PAMUJO,METU,3.7468071,31.8036756,MOYO
EREPI EAST AYIRO-1,AYIRO,METU,3.697322,31.7754117,MOYO
ERIA SOUTH-1,ERIA,MOYO,3.6937322,31.643556,MOYO
ERIA SOUTH-2,ERIA,MOYO,3.6119248,31.6845756,MOYO
GBALALA CENTRAL-1,GBALALA,DUFILE,3.5269468,31.7857166,MOYO
INDRIDRI A-1,DUFILE,DUFILE,3.554539,31.9196099,MOYO
LAMA-1,ALURU,MOYO,3.6056187,31.7188459,MOYO
BUKAKALA-1,WARD C,MPIGI TOWN COUNCIL,0.2286854,32.32473,MPIGI
BUSANYI-1,TIRIBOGO,MUDUUMA,0.3555393,32.30716,MPIGI
KIGO-1,MUSA,KAMMENGO,-0.0087769,32.1962006,MPIGI
KIRYAMBIDDE-1,BUTOOLO,KAMMENGO,0.1066683,32.22498,MPIGI
KISAMULA-1,LUGYO,MUDUUMA,0.3152997,32.38121,MPIGI
KYATO-1,SANGO,BUWAMA,0.041794,32.09748,MPIGI
LWAJJA KINAKUKA-1,BUKEMBA,KITUNTU,0.0201311,31.9942,MPIGI
MPAMBIRE A-1,KKONKOMA,MPIGI TOWN COUNCIL,0.148132,32.28795,MPIGI
MUNYONYO-1,BUNJAKO,BUWAMA,-0.0543567,32.1493636,MPIGI
MUNYONYO-2,BUNJAKO,BUWAMA,-0.042081,32.1124035,MPIGI
BUSEPO FR-1,KAGOMA,KITEGA,0.5059798,31.50444,MUBENDE
BUSEPO FR-2,KAGOMA,KITEGA,0.5094721,31.46815,MUBENDE
KABANYI-1,KIBALINGA B,KIBALINGA,0.5037011,31.24029,MUBENDE
KALEMBE-1,KALONGA,KITEGA,0.4382176,31.55769,MUBENDE
KALINGO-1,KIJOJOLO,BAGEZZA,0.4701768,31.37381,MUBENDE
KASAMBYA KABOWA-1,KABOWA,KIBALINGA,0.5446705,31.29445,MUBENDE
KAWERI FOREST RESERVE-1,BUSAALE,EASTERN DIVISION,0.6030985,31.3944,MUBENDE
KIYUYA-1,KAKINDU,EASTERN DIVISION,0.6527629,31.37437,MUBENDE
KIYUYA-2,KAKINDU,EASTERN DIVISION,0.638461,31.38506,MUBENDE
KYAKASA-1,BUBANDA,KASAMBYA,0.2831905,31.21786,MUBENDE
KYEGULUSO-2,LWABAGABO,SOUTHERN DIVISION,0.5207317,31.3853,MUBENDE
LULAGALA-1,NALUWONDWA,MADUDU,0.6448387,31.45469,MUBENDE
LWENSAMA KASAMBYATB-1,KASAMBYA TOWN BOARD,KASAMBYA,0.372693,31.24556,MUBENDE
NABIJWENGE-1,KAYINJA,WESTERN DIVISION,0.5920106,31.31409,MUBENDE
NGARAMA-1,KABBO,KASAMBYA,0.3248323,31.12893,MUBENDE
BUKEREERE-1,BUKEREERE WARD,GOMA DIVISION,0.4537689,32.70093,MUKONO
BUTININDI NZO-1,TERERE,NTENJERU,0.1966989,32.86469,MUKONO
BUWAALI-1,SEETA NAZIGO,NAKISUNGA,0.2753929,32.85902,MUKONO
BUYUNGU-1,NAKALANDA,MPATTA,0.2509276,32.71345,MUKONO
GGAVU-1,NAMALIRI,KASAWO,0.6225332,32.82638,MUKONO
GGAVU-2,NAMALIRI,KASAWO,0.6128019,32.81783,MUKONO
GGAVU-3,NAMALIRI,KASAWO,0.6340126,32.83724,MUKONO
GIMBI I-1,KITUULA,SEETA NAMUGANGA,0.7045877,32.78871,MUKONO
KASININYA-1,WAGALA,NAGOJJE,0.4121893,32.9474,MUKONO
KAYINI I-1,KAYINI,SEETA NAMUGANGA,0.6966718,32.77696,MUKONO
KIKOONA-1,NSANJA,NTENJERU,0.1466964,32.78149,MUKONO
LWETEEGA-1,BUGOYE,NTENJERU,0.1995063,32.78329,MUKONO
MABUYE-1,MPOMA,NAMA,0.4406845,32.75838,MUKONO
MANGIRA-1,NAKIBANO,NAGOJJE,0.4602887,32.83866,MUKONO
NGAGGA-1,BUSANGA,KOOME,-0.1046165,32.6864848,MUKONO
NKOKO-1,KAKUKUULU,KASAWO,0.6307696,32.87839,MUKONO
ZINGOLA MUBEMBE-1,MUBEMBE,KOOME,-0.0032922,32.7903016,MUKONO
CUCU-1,ACEGRETOLIM,NABILATUK,2.0781303,34.6685614,NABILATUK
PIAN UPE GAME RESERVE-1,NATIRAE,LOLACHAT,1.8970415,34.4739282,NABILATUK
AKOROR-1,KATABOK,MORUITA,1.8301262,34.8419984,NAKAPIRIPIRIT
LODOKET ANGITOMO-1,TOKORA,KAKOMONGOLE,1.871445,34.6918553,NAKAPIRIPIRIT
BUKUSU-1,NAMUSALE,KAPEEKA,0.6894677,32.31057,NAKASEKE
BULYAMUSENYU-1,BALYAMUSENYU,KINONI,1.342914,31.91942,NAKASEKE
KAGUYO-1,KATUUGO,NGOMA,1.072085,32.14583,NAKASEKE
KAKIRA-1,MIJJUMWA,WAKYATO,0.882919,32.22466,NAKASEKE
KASANGOMBE-1,BUKUUKU,KASANGOMBE,0.7229833,32.43429,NAKASEKE
KASANGOMBE-2,BUKUUKU,KASANGOMBE,0.7344545,32.44389,NAKASEKE
KASANGOMBE-3,BUKUUKU,KASANGOMBE,0.726898,32.42864,NAKASEKE
KAYINA-1,KIRINDA,WAKYATO,0.9751505,32.21306,NAKASEKE
KIBOSE-1,KIBOSSE,KIKAMULO,0.802068,32.35887,NAKASEKE
KIKONGE-1,NGOMA,NGOMA,1.231491,31.93997,NAKASEKE
KINONI-1,BIDDUKU,KINONI,1.424448,31.93249,NAKASEKE
KYALUWESI-1,KALAGALA,WAKYATO,1.004382,32.31038,NAKASEKE
KYAMAWENO-1,KINYOGOGA,KINYOGOGA,1.240862,32.28071,NAKASEKE
KYARUSHESHA-1,RWOOMA,KINYOGOGA,1.04907,32.34074,NAKASEKE
LUKUGA-1,BWETAGIRO,BUTALANGU TOWN COUNCIL,0.8449756,32.27451,NAKASEKE
KIRANGA-1,BAMUGOLODDE,KALONGO,1.124419,32.7628176,NAKASONGOLA
KIRANGA-2,BAMUGOLODDE,KALONGO,1.0863601,32.714458,NAKASONGOLA
KIRANGA-3,BAMUGOLODDE,KALONGO,1.0862618,32.7387923,NAKASONGOLA
KIRYABYOYA-1,KIGWERI,NAKITOMA,1.6202381,32.1046979,NAKASONGOLA
KIRYABYOYA-2,KIGWERI,NAKITOMA,1.5356797,32.1459671,NAKASONGOLA
KYABUTAYIKA-1,KIBIRA WARD,KAKOOGE,1.078703,32.4585519,NAKASONGOLA
MBAARI-1,LWAMPANGA,LWAMPANGA,1.4982535,32.5134515,NAKASONGOLA
NAMAKUKULU-1,KYANGOGOLO,NABISWERA,1.5371831,32.2896914,NAKASONGOLA
NAMBAJJU-1,MULONZI,NABISWERA,1.566575,32.2259302,NAKASONGOLA
NONGO-1,KYANKONWA,KAKOOGE,1.2219005,32.3528256,NAKASONGOLA
NONGO-2,KYANKONWA,KAKOOGE,1.2406807,32.3884269,NAKASONGOLA
NONGO-3,KYANKONWA,KAKOOGE,1.2211171,32.3839789,NAKASONGOLA
WAJJALA-1,WAJJALA,LWAMPANGA,1.4091811,32.4853723,NAKASONGOLA
WAJJALA-2,WAJJALA,LWAMPANGA,1.433684,32.4922958,NAKASONGOLA
WANKERENGE-1,WAMPITI,WABINYONYI,1.2267928,32.5577795,NAKASONGOLA
BUDIMO-1,GONDOHERA,BUYINJA,0.3172861,33.8378271,NAMAYINGO
BUSUDIA-1,BUWOYA,BANDA,0.2765207,33.9008774,NAMAYINGO
BUTANIRA-1,BULAGENE,SIGULU ISLANDS,0.1016957,33.8007216,NAMAYINGO
BUYINJA-1,NAMBUGU,NAMAYINGO TOWN COUNCIL,0.3702083,33.8776811,NAMAYINGO
LUBANGO A-1,LUBANGO,MUTUMBA,0.2137481,33.7529619,NAMAYINGO
LUBIRA-1,LUBIRA,MUTUMBA,0.2546328,33.8379839,NAMAYINGO
LUGALA BEACH-1,LUGALA,BANDA,0.1921536,33.8714764,NAMAYINGO
LUGUNJA-1,NAMAYUGE,BUSWALE,0.4462671,33.8922749,NAMAYINGO
LUVUNYA FR-1,MADOWA,BUSWALE,0.3954682,33.8737607,NAMAYINGO
LUWERERE B-1,DOHWE,BUHEMBA,0.3041932,33.797659,NAMAYINGO
MUTUMBA B-1,MUTUMBA,MUTUMBA,0.2582222,33.797362,NAMAYINGO
MWAGODA-1,LOLWE EAST,LOLWE,-0.1360775,33.7013286,NAMAYINGO
NAMABONI-1,LUTOLO,BANDA,0.2367114,33.8897652,NAMAYINGO
NAMAVUNDU NORTH-1,NSOONO,BUYINJA,0.3585418,33.833984,NAMAYINGO
SITYOHE-1,BUHEMBA,BUHEMBA,0.2608892,33.7463665,NAMAYINGO
BIMALAKA-1,BUKHAWEKA,BUKHAWEKA,0.9242628,34.33585,NAMISINDWA
BUKHISONI-1,BUNANYAMA,BUMBO,0.8875923,34.38826,NAMISINDWA
BULAKO-1,NAMITSA,BUBUTU,0.792752,34.33117,NAMISINDWA
BULUTSWALA-1,BUMUKULUMA,NAMBOKO,0.765637,34.32005,NAMISINDWA
BUSEKERE II-1,BUSEKERE,TSEKULULU,0.9609309,34.35984,NAMISINDWA
BUWAMBWA-1,BUSIMAOLYA,MAGALE,0.8670527,34.34815,NAMISINDWA
KISOKOTI-1,BUMUSOMI,BUBUTU,0.821158,34.31651,NAMISINDWA
LUKHENDU-1,BUKISASATI,BUMWONI,0.843316,34.38667,NAMISINDWA
MT ELGON NATIONAL PARK-1,MUKUTANO,MUKHOTO,0.9360381,34.39122,NAMISINDWA
NABUTITI-1,LWAKHAKHA WARD,LWAKHAKHA TOWN COUNCIL,0.7973884,34.37909,NAMISINDWA
BUDHEBERO B-1,BUBAGO,NSINZE,0.7990095,33.6108735,NAMUTUMBA
BUDUNDA-1,MPUMIRO,BULANGE,0.8095766,33.7768751,NAMUTUMBA
BULIMBA A-1,NABWEYO,KIBALE,0.8925565,33.555991,NAMUTUMBA
ITUBA B-1,ITUBA,NAMUTUMBA,0.7683312,33.6652214,NAMUTUMBA
KISOWOZI-1,KISOWOZI,IVUKULA,0.9729525,33.5920173,NAMUTUMBA
NAKISENYI-1,BUKENGA,BULANGE,0.726549,33.7647504,NAMUTUMBA
NAMAKOBA B-1,KIGALAMA,NAMUTUMBA,0.7895035,33.710494,NAMUTUMBA
NAWAMBIRI-1,KAGULU,MAGADA,0.9122707,33.7639697,NAMUTUMBA
NAWANKIMA-1,IVUKULA,IVUKULA,0.943541,33.6177938,NAMUTUMBA
NAWANSIMBI-1,LWATAMA,IVUKULA,0.9842736,33.6881148,NAMUTUMBA
BOKORA CORRIDOR GR-1,APEITILOM A,LOKOPO,2.3296706,34.0633818,NAPAK
BOKORA CORRIDOR GR-2,LORIKITAE,LOKOPO,2.7200018,34.1028015,NAPAK
ABAKRA-1,ABAR EAST,NDHEW,2.379611,31.11714,NEBBI
ACHIBU-1,MBARO EAST,NYARAVUR,2.424914,31.27153,NEBBI
ADUKU VILLAGE-1,JUKIA HILL,CENTRAL DIVISION,2.479715,31.0782,NEBBI
ADWOGO FUA-1,PAKOLO,AKWORO,2.272333,31.21802,NEBBI
AJOK-1,ABONGO,ERUSSI,2.282411,31.11805,NEBBI
AKADO-1,PULUM,PAROMBO,2.323332,31.1681,NEBBI
AKANGA-1,PAMINYA LOWER,ATEGO,2.445876,31.13577,NEBBI
AKURU-1,RERO,AKWORO,2.299111,31.26505,NEBBI
ALEGO EAST-1,OSSI EAST,PAROMBO,2.357709,31.23376,NEBBI
ALIEKRA-1,KOCH,NEBBI,2.530762,31.12699,NEBBI
AMOGU-1,MVURA,KUCWINY,2.450079,31.20775,NEBBI
AMOGU-2,MVURA,KUCWINY,2.5032,31.25226,NEBBI
ANJAO OMBANYA-1,KALOWANG,NEBBI,2.5398,31.0224,NEBBI
ARUNGMBELE-1,LEE,KUCWINY,2.596981,31.25299,NEBBI
ARUNGMBELE-2,LEE,KUCWINY,2.647898,31.28378,NEBBI
BOMA EAST-1,JUPANGIRA,NEBBI,2.383849,31.0463,NEBBI
GOT LEMBE-1,MURUSI,AKWORO,2.21901,31.22669,NEBBI
JUPANZEI-1,OLAGO,KUCWINY,2.501029,31.18466,NEBBI
NYEKAKURA-1,PADOLO,ERUSSI,2.323041,31.09339,NEBBI
PAVUNDE-1,PAMORA LOWER,NYARAVUR,2.376747,31.1814,NEBBI
AKUBUI-1,AKUBUI,MUKURA,1.5334798,33.8350235,NGORA
KEES-1,NGORA,NGORA,1.4454079,33.7425636,NGORA
ITOJO-1,ITOJO,KARUGUTU,0.8317125,30.25785,NTOROKO
KAJWEKA-1,RWENYANA,KANARA,0.9681537,30.43766,NTOROKO
KAJWEKA-2,RWENYANA,KANARA,1.067861,30.4448,NTOROKO
KARONDWA-1,BUTUNGAMA,BUTUNGAMA,1.117127,30.30636,NTOROKO
KENYANGE-1,KASUNGU,BUTUNGAMA,1.058214,30.37118,NTOROKO
KIMARA-1,KYABUKUNGURU,BUTUNGAMA,1.145992,30.416,NTOROKO
KISUNGU-1,RUKOORA,KIBUKU TOWN COUNCIL,0.9136009,30.31002,NTOROKO
KISUNGU-2,RUKOORA,KIBUKU TOWN COUNCIL,0.941675,30.2394663,NTOROKO
KYAMA-1,BWERAMULE,BWERAMULE,0.8923992,30.17694,NTOROKO
NGEGE-1,BUGANDO,BWERAMULE,0.9988651,30.28594,NTOROKO
WANKA-1,NOMBE,NOMBE,0.7433819,30.18915,NTOROKO
KABOROOGA-1,RUSHEBEYA,RWEIKINIRO,-1.001671,30.2824362,NTUNGAMO
KAFUNJO-1,KIYOORA,NYAKYERA,-0.8673783,30.3477045,NTUNGAMO
KAGOROGORO-3,NYARUBAARE,NTUNGAMO,-0.8672137,30.2213557,NTUNGAMO
KAKURA I-1,KIZINGA,NGOMA,-1.122281,30.317568,NTUNGAMO
KANGARAME-1,KISHAMI,RUHAAMA,-0.942605,30.36097,NTUNGAMO
KANGARAME-2,KISHAMI,RUHAAMA,-0.9653534,30.4044422,NTUNGAMO
KATABWIGUTE-1,NKONGOORO,NYABIHOKO,-0.8575664,30.1484037,NTUNGAMO
KIMINU-1,NYONGOZI,ITOJO,-0.782491,30.3028103,NTUNGAMO
KIRUNGU-1,KIRUNGU,RUKONI EAST,-0.8791746,30.5500751,NTUNGAMO
KYABUGYIMBI-1,RUHARA,NGOMA,-1.1356523,30.2867025,NTUNGAMO
KYABUKUJU I-1,AKATOJO,RUBAARE TOWN COUNCIL,-1.0431102,30.1758547,NTUNGAMO
KYAJERE-1,NYAKARIRO,NGOMA,-1.0565591,30.2255312,NTUNGAMO
NYAKATALE-1,MUGYERA,NGOMA,-1.160936,30.1995883,NTUNGAMO
NYAKATOJO-1,RUKANGA,NYABIHOKO,-0.8597925,30.1034285,NTUNGAMO
NYAMATONGO-1,RUKONI,KIBATSI,-0.7906753,30.125075,NTUNGAMO
ORUBIRIZI-1,KAGUGU,RUBAARE,-0.9231126,30.1655568,NTUNGAMO
RUNONI-1,CENTRAL,KITWE TOWN COUNCIL,-0.9988651,30.4979997,NTUNGAMO
RUTOOMA CENTRAL-1,NYAKIBIGI,IHUNGA,-0.7741097,30.2007658,NTUNGAMO
RUTOOMA-1,NGOMBA,RUGARAMA,-1.0401946,30.0624681,NTUNGAMO
RWENCWERA-1,KYAMATE,EASTERN DIVISION,-0.8543032,30.2794794,NTUNGAMO
BIDATI CELL-1,CEKE WARD,ANAKA TOWN COUNCIL,2.608974,31.9041949,NWOYA
BUNGU-1,LII,KOCH GOMA,2.4558491,32.1383073,NWOYA
BUNGU-2,LII,KOCH GOMA,2.464328,32.0991545,NWOYA
BUNGU-3,LII,KOCH GOMA,2.3503997,32.2274654,NWOYA
BUNGU-4,LII,KOCH GOMA,2.3640916,32.0459958,NWOYA
KALANG-1,AMAR,KOCH GOMA,2.6922867,32.1054352,NWOYA
LAGAZI-1,PABIT,PURONGO,2.3687226,31.6699763,NWOYA
LATEKODONG-1,PANOKRAC,ALERO,2.770649,31.892095,NWOYA
LATEKODONG-2,PANOKRAC,ALERO,2.7020649,31.4952115,NWOYA
LULYANGO-1,PAIBWOR,ALERO,2.6364407,31.6946713,NWOYA
LULYANGO-2,PAIBWOR,ALERO,2.6668206,32.0032626,NWOYA
LULYANGO-3,PAIBWOR,ALERO,2.6712139,31.6049601,NWOYA
MURCHISON FALLS NATIONAL PARK-1,PABALI,PURONGO,2.3978205,31.9340654,NWOYA
PAJENGO-1,LATORO,PURONGO,2.3914025,31.5843872,NWOYA
PAJENGO-2,LATORO,PURONGO,2.3691717,31.5813093,NWOYA
ACIMARI CENTRAL-1,EWAFA,ALIBA,3.193602,31.53012,OBONGI
AGUA-1,LOCOMGBO,ROMOGI,3.476497,31.51899,OBONGI
DELLO-1,LIWA,GIMARA,3.305713,31.51247,OBONGI
ERA CENTRAL FR PAAL-1,PAALUJO,ITULA,3.486817,31.62386,OBONGI
ERA CENTRAL FR PAAL-2,PAALUJO,ITULA,3.528919,31.66377,OBONGI
ERA CENTRAL FR PAAL-3,PAALUJO,ITULA,3.48444,31.65959,OBONGI
ERA CENTRAL FR PALO-1,PALORINYA,ITULA,3.52669,31.68782,OBONGI
KALI-1,KALI,ITULA,3.414472,31.56152,OBONGI
LUKURI-1,DEMBELE,ITULA,3.404343,31.57985,OBONGI
MASAKA-1,LOKPE,KOCHI,3.511481,31.52101,OBONGI
ATEDE-1,LAPAINAT EAST,KORO,2.7607985,32.4208032,OMORO
DINO-1,LAMOLA,ODEK,2.650721,32.748045,OMORO
LAMIN LAWINO-1,KAL,ONGAKO,2.6446705,32.2737993,OMORO
LAMINOPABO-1,LUJORONGOLE,LAKWANA,2.6204634,32.3620792,OMORO
LAMINOPABO-2,LUJORONGOLE,LAKWANA,2.6357173,32.3511422,OMORO
LUKOTO-1,BINYA,ODEK,2.76673,32.613023,OMORO
OGWARI-1,LUKWOR,ODEK,2.630819,32.606626,OMORO
OMOKOKITUNGE-1,IDOBO,LALOGI,2.7704758,32.5688175,OMORO
OMOKOKITUNGE-2,IDOBO,LALOGI,2.6920875,32.5355413,OMORO
OPWACH-1,GEM,OMORO TOWN COUNCIL,2.6361975,32.5377392,OMORO
AGWILA-1,ADYERAKONYA,ADWARI,2.562109,33.22672,OTUKE
ALUKA-1,AJUR,OGWETE,2.353444,33.56724,OTUKE
AWONKOK-1,OMWONYOLEE,OGUR,2.556993,33.34297,OTUKE
AWONKOK-2,OMWONYOLEE,OGUR,2.561902,33.38532,OTUKE
AYILOI B-1,OKERE,ADWARI,2.569499,33.30653,OTUKE
AYILOI B-2,OKERE,ADWARI,2.562,33.30105,OTUKE
KAMDINI-1,ARWOTNGO,OKWANG,2.557671,33.18044,OTUKE
OKANY-1,ATANGWATA,OGUR,2.447637,33.36229,OTUKE
OKORE-1,OKEE,ADWARI,2.576623,33.26194,OTUKE
OLANGIT B-1,ATIRA,OGWETE,2.446193,33.6849,OTUKE
ABAKIRAO A-1,OMACH,NGAI,2.434784,32.45779,OYAM
ABAKIRAO A-2,OMACH,NGAI,2.469768,32.45252,OYAM
ABANYA-1,EASTERN,OYAM TOWN COUNCIL,2.408123,32.47562,OYAM
ABUTA ATIDI-1,ATEK,MINAKULU,2.358078,32.42507,OYAM
ACANKWETE-1,WIRAO,ABER,2.185182,32.43018,OYAM
ACEKELATI-1,ARIBA,ABOK,2.519509,32.54083,OYAM
ADAGATINGA-1,ACOKARA,OTWAL,2.540603,32.65194,OYAM
AKUKI EAST-1,ACENO,MINAKULU,2.430484,32.41275,OYAM
AYITA B-1,ORUPU,ICEME,2.387933,32.62757,OYAM
DYERAILOGONONO-1,ANYOMOLYEC,OTWAL,2.598924,32.66835,OYAM
GWEC APOKO-1,ARAMITA,NGAI,2.512559,32.48663,OYAM
HOSPITAL-1,OCINI,KAMDINI,2.258478,32.44725,OYAM
IBUU-1,KULUABURA,MINAKULU,2.422931,32.24955,OYAM
ICEME GIRLS-1,OMOLO,ICEME,2.467738,32.61333,OYAM
KULO BUNGE-1,AGULURUDE,LORO,2.295869,32.63232,OYAM
ABICINIA-1,AWEE,LATANYA,3.079365,32.93072,PADER
ABUNGA-1,KOYO,LAPUL,2.906665,32.85244,PADER
ABYEBA-1,OPATE,ATANGA,2.855297,32.70266,PADER
ACUT OMER NORTH-1,WII GWENG,ACHOLI BUR,3.147108,32.87251,PADER
AJAN-1,PAKEYO,LAGUTI,2.977311,32.7691,PADER
AJOBI-1,OGAGO,PAJULE,3.003982,33.10309,PADER
AKWARA WEST-1,OGOLE,LAPUL,2.959911,32.93679,PADER
ARINGO DYANG-1,PUKOR,OGOM,2.872015,33.17508,PADER
ATEDE WEST-1,ANGOLE,AWERE,2.632417,32.87875,PADER
LAKUTOO-1,OGWIL,PADER,2.779696,32.91807,PADER
ABOK-1,PANYIMUR TOWN BOARD,PANYIMUR,2.255001,31.3028,PAKWACH
ACANA-1,FUALWONGA,ALWI,2.558983,31.30329,PAKWACH
ACET-1,POKWERO,PANYANGO,2.558046,31.42136,PAKWACH
AJEI EAST-1,MUTIR,WADELAI,2.726512,31.35244,PAKWACH
AJOBO-2,RAGEM LOWER,WADELAI,2.645117,31.37627,PAKWACH
AKELLA-1,OLYEJO,PAKWACH,2.434385,31.41851,PAKWACH
ANYOMKANGO-1,ABOK,ALWI,2.469401,31.35752,PAKWACH
AYABU CENTRAL-1,RAGEM UPPER,WADELAI,2.693441,31.4094,PAKWACH
AYAGO LOWER-1,BORO,PANYIMUR,2.378847,31.31765,PAKWACH
PAFUGI WEST-1,PUMIT,WADELAI,2.75212,31.38662,PAKWACH
AKIMENG-1,KACHANGO,GOGONYO,1.2117796,33.570759,PALLISA
AKIMENG-2,KACHANGO,GOGONYO,1.2072548,33.5860554,PALLISA
AKIMENG-3,KACHANGO,GOGONYO,1.242592,33.589307,PALLISA
ALELES-1,AKAMWOR,CHELEKURA,1.3193466,33.6936364,PALLISA
KAKUTUIRE-1,GOGONYO,GOGONYO,1.3169135,33.4683375,PALLISA
KAKUTUIRE-2,GOGONYO,GOGONYO,1.2761681,33.5709928,PALLISA
MANGA-1,BOLISO 1,PUTI PUTI,1.1655186,33.7657426,PALLISA
NAPETETE-1,KALAPATA,KAMUGE,1.1707194,33.8293803,PALLISA
OBOLISO KOMOLO-1,OBOLISO,KAMEKE,1.294961,33.7850906,PALLISA
OBUNGAI-1,OLOK,OLOK,1.1886773,33.6491791,PALLISA
BULYAKAMU-1,KANONI,LWANDA,-0.6455081,31.4742647,RAKAI
BYENKENDE-1,KALUNGI,KYALULANGIRA,-0.767309,31.3117955,RAKAI
KACUMU-1,BUYAMBA,DDWANIRO,-0.6624542,31.3945245,RAKAI
KAGAGA-1,KAKUNDI,LWAMAGGWA,-0.5881825,31.2097749,RAKAI
KAMUKALO A-1,KAMUKALO,BYAKABANDA,-0.7607859,31.3715357,RAKAI
KANONI KATUNTU WARD-1,KATUNTU WARD,RAKAI TOWN COUNCIL,-0.6948415,31.4153871,RAKAI
KIBUNGO-1,RWESINGA,KIZIBA,-0.9033779,31.2815519,RAKAI
KISWERE-1,KYALUGABA,KIBANDA,-0.9251536,31.3645749,RAKAI
KITEMBA-1,BITABAGO,LWANDA,-0.686725,31.4409658,RAKAI
KITEMBA-2,BITABAGO,LWANDA,-0.689648,31.453302,RAKAI
KITEMBA-3,BITABAGO,LWANDA,-0.6971567,31.4468998,RAKAI
KIWENDA BUTITI-1,BUTITI,LWANDA,-0.6224961,31.4187582,RAKAI
KYAKABUGEMA-1,KAGAMBA,KAGAMBA,-0.6537807,31.319472,RAKAI
KYAKABUTU-1,KAKINGA,KIBANDA,-0.8395547,31.3329335,RAKAI
LWAMAGABI-1,KYABIGONDO,LWAMAGGWA,-0.4928259,31.2244053,RAKAI
LWAMAGWA-1,KIWEEKA,LWAMAGGWA,-0.554789,31.2795588,RAKAI
LWAMUKONKO-1,KATATENGA,KACHEERA,-0.6668296,31.1402595,RAKAI
LWANTANGA-1,KAYONZA [KACHEERA],KACHEERA,-0.638617,31.171234,RAKAI
NTOVU KASULA-1,KASULA,KYALULANGIRA,-0.7262966,31.2550379,RAKAI
NYANGA KENTELE-1,KISAASA,KIFAMBA,-0.7662238,31.4559653,RAKAI
BUGANDARA-1,IGOMANDA,HAMURWA,-1.1598193,29.9336152,RUBANDA
BUSHURE MPUNGU-1,MPUNGU,HAMURWA,-1.092795,29.91186,RUBANDA
BWINDI FOREST NATIONAL PARK-1,KASHEKYERA,RUHIJA,-1.0130016,29.7605342,RUBANDA
HAMUKAAKA-1,KYENYI,MUKO,-1.2033142,29.8717128,RUBANDA
KAGOYE BIGUNGIRO-1,BIGUNGIRO,NYAMWERU,-1.2013407,29.9944872,RUBANDA
KYABAHINGA-1,KAGARAMA,BUBAARE,-1.239326,29.929477,RUBANDA
MUKASHEKYERA-1,NYABUHANGA,RUBANDA TOWN COUNCIL,-1.1356987,29.8611844,RUBANDA
MWEFUZO-1,KASHAASHA,IKUMBA,-1.1378566,29.7783933,RUBANDA
NYAKARANGA-1,KIYEBE,RUHIJA,-1.0574142,29.8141238,RUBANDA
RWAKORORO-1,KACEREERE,BUFUNDI,-1.2851546,29.8515462,RUBANDA
BUHINGO-1,RUMURI,KICHWAMBA,-0.226091,29.976486,RUBIRIZI
BUHINGO-2,RUMURI,KICHWAMBA,-0.1923658,30.0757108,RUBIRIZI
BUHINGO-3,RUMURI,KICHWAMBA,-0.2804689,29.9359959,RUBIRIZI
BUHINGO-4,RUMURI,KICHWAMBA,-0.2780086,29.95695,RUBIRIZI
BUHINGO-5,RUMURI,KICHWAMBA,-0.1499644,30.0757624,RUBIRIZI
BUZENGA-1,BUZENGA,RYERU,-0.2781186,30.1316362,RUBIRIZI
BWEGIRAGYE-1,RUGARAMA,KYABAKARA,-0.16012,30.230521,RUBIRIZI
IGOMANDA II A-1,NGORO,KYABAKARA,-0.1900671,30.2374691,RUBIRIZI
KAATARA-1,KATAARA,KICHWAMBA,-0.2437104,30.0824141,RUBIRIZI
KAFURO-1,KIRUGU,KIRUGU,-0.1891235,30.1225546,RUBIRIZI
KAKAARI-1,KAKAARI,KYABAKARA,-0.1808191,30.2031978,RUBIRIZI
KAKINDO-1,KATANDA,KATANDA,-0.2208336,30.1696881,RUBIRIZI
KANTUNGU-1,NDANGARO,RUTOTO,-0.355557,30.1101861,RUBIRIZI
KANYANSHANDE-1,MUGYERA,KATANDA,-0.2405815,30.1450932,RUBIRIZI
KANYUNGU-1,NYAMABARE,KATERERA,-0.2070883,30.1989221,RUBIRIZI
MUNYONYI-1,NYANDONGO,KATANDA,-0.2327317,30.2137865,RUBIRIZI
NKONDO-1,NYAKIYANJA,RYERU,-0.2949835,30.0795775,RUBIRIZI
NYAMIRIMA II-1,KATERERA,KATERERA,-0.121927,30.199286,RUBIRIZI
NYAMIRIMA II-2,KATERERA,KATERERA,-0.1744927,30.1609561,RUBIRIZI
OMUMASAKA-1,KYAMBURA,KICHWAMBA,-0.2229979,30.1146908,RUBIRIZI
AHAKATUNTU-1,KITANGA,KASHAMBYA,-1.089415,30.0077857,RUKIGA
HAMUNYINYA-1,BURIME,RWAMUCUCU,-1.1269333,30.0573585,RUKIGA
KAFUKA-1,MUHANGA,MUHANGA TOWN COUNCIL,-1.1873998,30.13936,RUKIGA
KAHAMA-1,NYAKAGABAGABA,RWAMUCUCU,-1.080901,30.056853,RUKIGA
KAKATUNDA-1,RUTARE,MUHANGA TOWN COUNCIL,-1.1977829,30.111853,RUKIGA
KARIBA KAROBWA-1,KARORWA,BUKINDA,-1.2169506,30.1497013,RUKIGA
KARIMBWE-1,KANDAGO,BUKINDA,-1.169582,30.079781,RUKIGA
KASOONI-1,NOOZI,RWAMUCUCU,-1.1327807,30.0145706,RUKIGA
KIGAZI-1,KYERERO,BUKINDA,-1.1435413,30.0976984,RUKIGA
KITONVE-1,IBUMBA,RWAMUCUCU,-1.2100817,30.0760399,RUKIGA
MIGYESI-1,BUCUNDURA,KASHAMBYA,-1.1125833,29.9745219,RUKIGA
MIGYESI-2,BUCUNDURA,KASHAMBYA,-1.0670197,29.9443575,RUKIGA
MUIBUMBA-1,RUTENGYE,KASHAMBYA,-1.0281467,29.9649936,RUKIGA
MUTOJO KIGARA-1,KIGARA,KAMWEZI,-1.2234943,30.2040549,RUKIGA
NYABUNYUNGU-1,KIBANDA,KAMWEZI,-1.1898547,30.2655244,RUKIGA
NYAKAMBU-1,RWENYANGYE,KAMWEZI,-1.1764756,30.1731309,RUKIGA
NYAKISA-1,KASHEKYE,KAMWEZI,-1.2598358,30.2016515,RUKIGA
NYAMASHAMBA-1,KAFUNJO,KASHAMBYA,-1.0435481,29.9310687,RUKIGA
OMURUGANDA-1,NYAKASHEBEYA,KASHAMBYA,-1.0567175,29.9939826,RUKIGA
SINDI-1,MPARO,RWAMUCUCU,-1.1728143,30.0369973,RUKIGA
BUGOMORA-1,KAFUNJO,NYAKISHENYI,-1.0235445,29.909665,RUKUNGIRI
KACENCE-2,KACENCE,NYAKISHENYI,-0.9675922,29.8903075,RUKUNGIRI
KAGOROGORO-2,IBANDA,NYARUSHANJE,-1.0035756,30.0009916,RUKUNGIRI
KAGYERA-1,NORTHERN A,WESTERN,-0.7823301,29.9096905,RUKUNGIRI
KAKONI-1,NYABUBARE,BWAMBARA,-0.6087911,29.8520383,RUKUNGIRI
KAROKARUNGI-2,NYABUSHENYI,NYARUSHANJE,-0.9388144,29.9689386,RUKUNGIRI
KASHENYI SS-1,RWAMUGOMA,RUHINDA,-0.7333159,29.948955,RUKUNGIRI
KATERAMPUNGU-1,KAZINDIRO,BUGANGARI,-0.7350982,29.8404742,RUKUNGIRI
KATUNGU I-1,NYAKINENGO,NYAKAGYEME,-0.8588091,29.8814185,RUKUNGIRI
KIBIRIZI-1,BWANGA,NYARUSHANJE,-0.9470397,30.0323812,RUKUNGIRI
KIGARIGARI-1,NYAKITABIRE,RUHINDA,-0.6592282,29.9010782,RUKUNGIRI
KITANDA-1,NYAKAINA,BUYANJA,-0.8740242,29.9663914,RUKUNGIRI
NYAKABUNGO B-1,KIKARARA,BWAMBARA,-0.5883196,29.7574041,RUKUNGIRI
NYAKARAMA-1,KIKONGI,BWAMBARA,-0.6638536,29.8116405,RUKUNGIRI
NYAKARIRO CENTRAL-1,KASHAYO,BUGANGARI,-0.7711304,29.8479711,RUKUNGIRI
NYAKAZINGA-1,KARUHEMBE,KEBISONI,-0.8200398,30.0408756,RUKUNGIRI
QUEEN ELIZABETH NP-1,QUEEN ELIZABETH NP,BWAMBARA,-0.5192423,29.8076111,RUKUNGIRI
QUEEN ELIZABETH NP-2,QUEEN ELIZABETH NP,BWAMBARA,-0.4429565,29.8323987,RUKUNGIRI
QUEEN ELIZABETH NP-3,QUEEN ELIZABETH NP,BWAMBARA,-0.516225,29.7441263,RUKUNGIRI
RWEERE-1,NYAKABUNGO,BUYANJA,-0.9069557,29.9167011,RUKUNGIRI
BUSINGYE-1,RWENSINGA,NDAIJA,-0.7105923,30.4247219,RWAMPARA
KAGONGI-1,NYARUBUNGO,RUGANDO,-0.6351353,30.4489438,RWAMPARA
KIBUBA-1,NYAKAIKARA,NDAIJA,-0.7499348,30.4223988,RWAMPARA
KIJOJO-1,BUJAGA,NDAIJA,-0.7472118,30.3768987,RWAMPARA
KIKYERENYO-1,MIRAMA,RUGANDO,-0.6333491,30.5168341,RWAMPARA
KIZIBA-1,KIBAARE,NDAIJA,-0.762747,30.3559471,RWAMPARA
KONGORO-1,KONGORO,NDAIJA,-0.7659236,30.4520726,RWAMPARA
KYABWIHURE-1,KITUNGURU,RUGANDO,-0.6678535,30.4967718,RWAMPARA
RUGARAMA-2,NYABIKUNGU,RUGANDO,-0.6722593,30.5165861,RWAMPARA
RWOHO FOREST RESERVE-1,RWOHO,RUKONI EAST,-0.847159,30.5824333,RWAMPARA
RWOHO FOREST RESERVE-2,KIGAAGA,MWIZI,-0.81932,30.6110662,RWAMPARA
APUTON-1,KABULABULA,KADUNGULU,1.4817697,33.1568335,SERERE
NANANGA A-1,KANYANGAN,KATETA,1.3567361,33.5015289,SERERE
KANGOKE-1,MASYORO,KYANGYENYI,-0.4744488,30.37486,SHEEMA
KASINGA-1,RUKONDO,KASAANA,-0.7121422,30.1888693,SHEEMA
KATONGO-1,KYEIBANGA WEST,KITAGATA,-0.6582545,30.1724696,SHEEMA
KISHABYA WEST-1,KISHABYA,SHUUKU TOWN COUNCIL,-0.6932433,30.3073025,SHEEMA
MARKET MARKET-1,MUHITO,KITAGATA,-0.6758845,30.1456467,SHEEMA
MURAMA-1,KYARUSHAKARA,KITAGATA,-0.6750375,30.1303177,SHEEMA
MUSHEKURE-1,BURINGO,MASHERUKA,-0.4556533,30.4633113,SHEEMA
MUTOJO-1,MIGINA,KAGANGO DIVISION,-0.5586588,30.4421108,SHEEMA
RUHOROBERO-1,NYAKASHOGA,BUGONGI TOWN COUNCIL,-0.718343,30.242035,SHEEMA
RWEMIYAGA-1,KYABANDARA,CENTRAL DIVISION,-0.6142721,30.3636277,SHEEMA
BUKANYANGA-1,BUGAMBI,BUNYAFA,1.126067,34.28925,SIRONKO
BUMONGOTI-1,NABUBOLO,NALUSALA,1.164515,34.25585,SIRONKO
BUWANGOLO BUMWAMBU-1,BUMWAMBU,BUYOBO,1.155448,34.31391,SIRONKO
ELGON NGPMALERE-1,ELGON,BUGITIMWA,1.130463,34.42573,SIRONKO
KIZINGA BUMALIMBA-1,BUMALIMBA,BUMALIMBA,1.197686,34.32989,SIRONKO
KWONTA-1,SIRONKO,BUKHULO,1.225787,34.23174,SIRONKO
KYESHA A-1,NABWEYA,ZESUI,1.10591,34.3374,SIRONKO
MIYEMBE-1,BUSATTE,BUTANDIGA,1.240434,34.29498,SIRONKO
MUGOBOLE-1,BUFAKA,BUMASIFWA,1.160129,34.37228,SIRONKO
NASALE BUKINYALE-1,BUKINYALE,MASABA,1.127053,34.39439,SIRONKO
ARARAK-1,KAMUDA,KAMUDA,1.6940597,33.4573804,SOROTI
OKUDAI-1,LALLE,KAMUDA,1.6671282,33.5019715,SOROTI
BWEYALE-1,MABINDO,MIJWALA,-0.0957908,31.528719,SSEMBABULE
KASHAMBYA-1,NTUUSI,NTUSI,0.0739935,31.19921,SSEMBABULE
KAWANDA-1,KAWANDA,LUGUSULU,0.1171179,31.40687,SSEMBABULE
KEWAYA-1,KARUSHONSHOMEZI,NTUSI,0.0137001,31.3243387,SSEMBABULE
KIBULALA-1,KASAMBYA,MATEETE,-0.2921533,31.5429784,SSEMBABULE
KIROWOOZA-1,KAMPALA,LWEMIYAGA,-0.0220904,31.0418101,SSEMBABULE
KITEREDDE-2,MANYAMA,MATEETE,-0.2516242,31.4959729,SSEMBABULE
LWABAANA-1,NSOGA,MIJWALA,-0.1487616,31.4321873,SSEMBABULE
LWAMATENGO-1,LWEMIBU,LWEMIYAGA,0.0358062,31.1106699,SSEMBABULE
LWENDEZI-1,KABAALE,LWEBITAKULI,-0.3190559,31.4113301,SSEMBABULE
MAKOMI-1,LUBAALE,LWEMIYAGA,0.1515543,31.0432942,SSEMBABULE
MATEETE NORTH-1,MATEETE CENTRAL,MATEETE TOWN COUNCIL,-0.2422811,31.4895,SSEMBABULE
MATEETE WEST-1,MATEETE WEST,MATEETE TOWN COUNCIL,-0.2581805,31.4898637,SSEMBABULE
MISENYI-1,KASAMBYA,LWEBITAKULI,-0.265041,31.3042809,SSEMBABULE
MISENYI-2,KASAMBYA,LWEBITAKULI,-0.311035,31.329219,SSEMBABULE
ABWEL A-1,MWELLO,MULANDA,0.7202592,34.0401469,TORORO
BUJWAALA B A-1,NAMWANGA,NABUYOGA,0.6629218,33.9395605,TORORO
BUGERA-1,BUSSI,BUSSI,0.0489043,32.28667,WAKISO
BUGIRI KAWULWE-1,KISUBI,KATABI TOWN COUNCIL,0.1248124,32.5666,WAKISO
BUNONKO MISOLI-1,KIGUNGU WARD,DIVISION B,0.0511472,32.4531,WAKISO
KABINDULA-1,KYASA,NAMAYUMBA,0.4282409,32.24655,WAKISO
KASANGA-1,LUGUZI,NAMAYUMBA TOWN COUNCIL,0.5304722,32.26064,WAKISO
KASENGE-1,KIKAJJO,KYENGERA TOWN COUNCIL,0.2617485,32.5135,WAKISO
KAWANDA CENTRAL-1,KAWANDA,NABWERU DIVISION,0.4105121,32.52331,WAKISO
KAZINGA MAIN-1,BWEYOGERERE,BWEYOGERERE DIVISION,0.3512244,32.6681098,WAKISO
KYAMPISI-1,KYAMPISI,NAMAYUMBA TOWN COUNCIL,0.5521272,32.25353,WAKISO
LULAGALA-2,KAVULE,GOMBE DIVISION,0.5135107,32.44235,WAKISO
MALANGATA NGONDWE-1,KANZIRO,NAMAYUMBA,0.4825153,32.24772,WAKISO
NAKEDDE-1,NAKEDDE,NAMAYUMBA,0.4626783,32.20543,WAKISO
NAKYELONGOOSA-1,NAKYELONGOOSA,KAKIRI TOWN COUNCIL,0.4478121,32.37103,WAKISO
SANDA-1,NGONGOLO,KAJJANSI TOWN COUNCIL,0.1433923,32.46989,WAKISO
SOKOLO-1,SOKOLO,KASANJE,0.2080332,32.4017685,WAKISO
ALINGA-1,ALINGA,KURU,3.4531736,31.1590371,YUMBE
AMATANGA-1,SWINGA,ROMOGI,3.5192327,31.4000533,YUMBE
AYIVU-1,RIGBONGA,ARIWA,3.2419621,31.3426128,YUMBE
COMMUNITY FOREST RES-1,AMBALA,KEI,3.7184266,31.181108,YUMBE
COMMUNITY FOREST RES-2,PALAJA,KEI,3.6455423,31.1119711,YUMBE
INGILE RANGELAND-1,GOBORO,KOCHI,3.6306239,31.4079622,YUMBE
KABORU-1,MIJIKITA,KERWA,3.7839937,31.2914583,YUMBE
KIYI-1,LUI,ODRAVU,3.3244524,31.2146809,YUMBE
KULUPI-1,CHABILI,ROMOGI,3.4417566,31.4415415,YUMBE
LEWA B-1,LOMBE,KOCHI,3.5746475,31.5069404,YUMBE
OCHINGA-1,IKAFE,ARIWA,3.280248,31.4200881,YUMBE
OLI-1,OLIVU,DRAJANI,3.3758741,31.1106847,YUMBE
PAMULE-1,MIGO,MIDIGO,3.5747236,31.2397992,YUMBE
TIMBAKWA-1,YIBA,LODONGA,3.4065139,31.1376099,YUMBE
WADADA-1,KERILA,APO,3.5026862,31.2828931,YUMBE
AGENGO-1,CHANA,PAIDHA,2.458666,30.98864,ZOMBO
AGORO-1,ANGOL,ATYAK,2.66438,30.94958,ZOMBO
ANYAVU-1,KIGEZI,ZEU,2.547728,30.84063,ZOMBO
AWANG FR-1,ANGAR,KANGO,2.621956,30.81303,ZOMBO
CONGAMBE-1,ABAJI,JONGAKORO,2.458722,30.87834,ZOMBO
ENTEBBE-1,PAPOGA,ZEU,2.505367,30.83135,ZOMBO
GUNA-1,OYEYO,NYAPEA,2.445459,30.94984,ZOMBO
JUPANGAO-1,AYAKA,ZEU,2.435721,30.81259,ZOMBO
LORRORA-1,OMOYO,ZEU,2.555156,30.80628,ZOMBO
MVUGU-1,DWONGA,PAIDHA TOWN COUNCIL,2.421151,31.01007,ZOMBO
NAGURU-1,ANYOLA,ATYAK,2.611538,30.96156,ZOMBO
NGMBANG-1,PAKADHA,ABANGA,2.392585,30.92837,ZOMBO
OLEDHIRE-1,NGIRA,KANGO,2.591599,30.85151,ZOMBO
OMBAVU-1,JULOKA,WARR,2.61064,30.90441,ZOMBO
OMOKO-1,PATEK,JONGAKORO,2.386145,30.87758,ZOMBO
ORYANG-1,PAKIA,WARR,2.558803,30.88718,ZOMBO
RODU-1,THANGA,ABANGA,2.421904,30.95829,ZOMBO
TANGALAMOLOJU-1,PALEY WEST,ZOMBO TOWN COUNCIL,2.514595,30.9578,ZOMBO
TANGALAMOLOJU-2,PALEY WEST,ZOMBO TOWN COUNCIL,2.504038,30.90827,ZOMBO
ZAMBA-1,PADUBA,KANGO,2.652134,30.87798,ZOMBO
BUWUNGE-1,BUFUMIRA,BUFUMIRA,-0.3963836,32.3718312,KALANGALA
LAKE VICTORIA-2,BUKIBONGA,BUKAKATA,-0.3,32.0333,MASAKA
